address,countyName,editDate,in4WeekTotleCount,next2WeekCount,next2WeekRange,next3WeekCount,next3WeekRange,nextWeekCount,nextWeekRange,orgName,payDetail,phone,strTeleconsultation,thisWeekCount,thisWeekRange,scraped_county_name,lat,lng
臺北市信義區松德路309號,臺北市,2025/11/17,0,0,,0,,0,,臺北市立聯合醫院松德院區,掛號費50元,02-27263141轉1394,是,0,,臺北市,25.030479982975,121.574885035667
臺北市大安區仁愛路四段10號,臺北市,尚未更新,0,0,,0,,0,,臺北市立聯合醫院仁愛院區,掛號費50元,02-27093600轉5546,是,0,,臺北市,25.03754001811,121.545302281876
臺北市信義區吳興街252號,臺北市,2025/11/14,0,0,,0,,0,,臺北醫學大學附設醫院,掛號費200元,02-27372181轉3661,是,0,,臺北市,25.026638011926,121.563637778891
臺北市北投區新民路60號,臺北市,2025/12/03,0,0,,0,,0,,三軍總醫院北投分院附設民眾診療服務處,無,02-28959808轉603156,是,0,,臺北市,25.139973789984,121.509680283028
臺北市大安區復興南路2段236號12樓之3,臺北市,2025/11/14,0,0,,0,,0,,捷思身心醫學診所,無,02-23221739,是,0,,臺北市,25.025107015402,121.54309700315
臺北市中山區南京西路5-1號12樓之1,臺北市,2025/11/23,0,0,,0,,0,,黃雅芬兒童心智診所,無,0910-222280  (LINE官方帳號：@childpsy),是,0,,臺北市,25.052611979215,121.521370020472
臺北市中山區復興北路282號2樓,臺北市,2025/11/14,0,0,,0,,0,,振芝心身醫學診所,掛號費300元,02-25069169、LINE ID:  @096jkbbo,是,0,,臺北市,25.058820119621,121.543910885949
臺北市松山區三民路84號.健康路345號及民生東路5段192號2樓之3,臺北市,2025/12/02,0,0,,0,,0,,李政洋身心診所,掛號費600元,02-27620086、02-27473339,是,0,,臺北市,25.058220981182,121.564261979221
臺北市信義區光復南路421號2樓,臺北市,2025/11/17,0,0,,0,,0,,伯特利身心診所,掛號費600元,02-27200938,是,0,,臺北市,25.036236003524,121.557726022581
臺北市北投區石牌路一段69號,臺北市,2025/11/21,0,0,,0,,0,,石牌鄭身心醫學診所,掛號費：健保250元；自費850元,02-28227660,是,0,,臺北市,25.113578003418,121.511015017289
臺北市中正區羅斯福路二段198號6樓之5,臺北市,2025/12/01,0,0,,0,,0,,暖心全人諮商中心心理諮商所,無,02-23661099,是,0,,臺北市,25.024807991006,121.523847040499
臺北市中正區和平西路一段17號3樓,臺北市,2025/11/19,0,0,,0,,0,,好窩心理諮商所,無,02-23568846,是,0,,臺北市,25.027033009113,121.521195006334
臺北市中正區寧波西街87號7樓之2,臺北市,2025/11/14,0,0,,0,,0,,點晴心理諮商所,無,0976-710756,是,0,,臺北市,25.03000690836,121.515846597737
臺北市中正區博愛路76號10樓之2,臺北市,2025/11/27,0,0,,0,,0,,擁抱心理博愛館心理諮商所,無,02-23715808,是,0,,臺北市,25.044675993288,121.511329003382
臺北市中山區松江路206號9樓之1,臺北市,2025/11/14,0,0,,0,,0,,蘊寬心理諮商所,無,0919-915355,是,0,,臺北市,25.057535886326,121.532907207279
臺北市中山區松江路289之910號9樓,臺北市,2025/11/24,0,0,,0,,0,,點亮心燈諮商中心心理諮商所,無,02-27849528、0968-138838,是,0,,臺北市,25.060431708144,121.533382461189
臺北市中山區吉林路231號3樓,臺北市,2025/11/25,0,0,,0,,0,,以賽亞心理諮商所,無,0933-569611,是,0,,臺北市,25.060923013399,121.530377967996
臺北市中山區復興北路280巷2號3樓,臺北市,2025/11/27,0,0,,0,,0,,綻芯心理諮商所,無,02-25016199,是,0,,臺北市,25.058771878399,121.543169440194
臺北市中山區南京東路二段176號11樓,臺北市,2025/12/03,0,0,,0,,0,,一二心理諮商所,無,0932-151618 ，Line ID@fawntaiwan,是,0,,臺北市,25.051660004562,121.534973011136
臺北市松山區民生東路五段69巷25號1樓,臺北市,2025/11/12,0,0,,0,,0,,象家園心理諮商所,無,02-27650285,是,0,,臺北市,25.059866013499,121.558055012281
臺北市大安區信義路四段265巷21弄26號,臺北市,2025/12/03,0,0,,0,,0,,格瑞思心理諮商所,無,02-2325-4648,是,0,,臺北市,25.033598009047,121.555830958092
臺北市大安區新生南路一段103巷9-1號1樓,臺北市,尚未更新,0,0,,0,,0,,拉第石心理諮商所,無,02-27527588轉16(星期日、一休息),是,0,,臺北市,25.040789011419,121.534020994573
臺北市大安區信義路四段187號7樓,臺北市,2025/12/03,0,0,,0,,0,,綻芯安和心理諮商所,無,02-27010030,是,0,,臺北市,25.033614982401,121.550970962993
臺北市大安區東豐街7號14樓,臺北市,2025/11/14,0,0,,0,,0,,格桑美度心理諮商所,無,02-27095598,是,0,,臺北市,25.036184999643,121.544150021646
臺北市大安區信義路四段155號8樓,臺北市,2025/12/01,0,0,,0,,0,,初和心理諮商所,無,02-27013392,是,0,,臺北市,25.033420019333,121.550029004714
臺北市大安區羅斯福路三段61號2樓,臺北市,2025/11/12,0,0,,0,,0,,心寓心理諮商所,無,0910-080536,是,0,,臺北市,25.023044019483,121.525846962596
臺北市大安區和平東路二段134-18號,臺北市,2025/11/24,0,0,,0,,0,,國立臺北教育大學心理諮商暨健康促進研究中心芳蘭心理諮商所,無,02-27321104轉86001,是,0,,臺北市,25.024518019065,121.545601012905
臺北市大安區信義路三段202號6樓之1,臺北市,2025/11/14,0,0,,0,,0,,毛蟲藝術心理諮商所,無,02-27551338,是,0,,臺北市,25.033181302731,121.543324320364
臺北市大安區和平東路二段66號6樓之1,臺北市,2025/12/03,0,0,,0,,0,,愛心理諮商所,無,02-29224977,是,0,,臺北市,25.025237982639,121.538960031019
臺北市大安區忠孝東路三段54號4樓之1,臺北市,2025/11/14,0,0,,0,,0,,中崙諮商中心心理諮商所,無,02-27319731,是,0,,臺北市,25.041725982466,121.535491012752
臺北市大安區東豐街7號5樓之2,臺北市,2025/11/20,0,0,,0,,0,,啟宗心理諮商所,無,02-23254066,是,0,,臺北市,25.036094014084,121.547998991584
臺北市大安區青田街5巷16號,臺北市,2025/11/18,0,0,,0,,0,,國立臺灣師範大學社區諮商中心心田心理諮商所,無,02-77495720,是,0,,臺北市,25.028530980939,121.532790028273
臺北市士林區中山北路七段141巷5號4樓,臺北市,2025/12/03,0,0,,0,,0,,我的心理諮商所,無,0970-608189,是,0,,臺北市,25.122995993645,121.531079030377
臺北市內湖區港華街57號,臺北市,2025/11/14,0,0,,0,,0,,詠安心理諮商所,無,02-26276655、0932-320628,是,0,,臺北市,25.083029989657,121.575261969853
臺北市內湖區成功路四段32號4樓,臺北市,2025/11/14,0,0,,0,,0,,擁抱心理諮商所,無,02-87920568,是,0,,臺北市,25.081711013374,121.591655966636
臺北市文山區木柵路二段62號2樓,臺北市,2025/11/18,0,0,,0,,0,,利伯他茲心理諮商所,無,02-29361183,是,0,,臺北市,24.988578010811,121.559282961096
臺北市文山區羅斯福路六段297號6樓,臺北市,2025/11/14,0,0,,0,,0,,依懷心理諮商所,無,0909-416020,是,0,,臺北市,24.994240992234,121.541351974728
臺北市中正區中山北路一段2號6樓之6,臺北市,2025/11/27,0,0,,0,,0,,冬青心理治療所,無,02-23882552,是,0,,臺北市,25.046081009808,121.519486020095
臺北市大同區承德路二段75巷5號1樓,臺北市,2025/11/27,0,0,,0,,0,,宇聯心理治療所,無,02-25565255,是,0,,臺北市,25.05584399917,121.518599969111
臺北市松山區民生東路五段202之3號1樓,臺北市,2025/11/14,0,0,,0,,0,,賦能心理治療所,無,02-27680668,是,0,,臺北市,25.058419003644,121.564395000024
臺北市松山區八德路三段106巷67號1樓,臺北市,2025/11/14,0,0,,0,,0,,聊聊心理治療所,無,02-25798519、line id:@bu.com.tw,是,0,,臺北市,25.044695020208,121.554460014009
臺北市大安區信義路四段58號12樓之3,臺北市,2025/12/03,0,0,,0,,0,,福樂心理治療所,無,0919-517774,是,0,,臺北市,25.032979005497,121.545377970461
臺北市大安區復興南路二段139號10樓,臺北市,2025/11/24,0,0,,0,,0,,力人心理治療所,無,02-27081412,是,0,,臺北市,25.028695014784,121.543768980328
臺北市大安區信義路三段190號6樓,臺北市,2025/11/14,0,0,,0,,0,,童伴心理治療所,無,02-27555429,是,0,,臺北市,25.033178997707,121.542871027041
臺北市士林區中山北路五段527號3樓,臺北市,2025/11/18,0,0,,0,,0,,展立心理治療所,無,02-28830823,是,0,,臺北市,25.094072979453,121.527841017362
臺北市士林區德行東路190巷31弄6號1樓,臺北市,2025/11/26,0,0,,0,,0,,沐昕天母心理治療所,無,0909-270237,是,0,,臺北市,25.107407791124,121.532103885679
臺北市北投區石牌路一段71巷3弄3號1樓,臺北市,2025/11/17,0,0,,0,,0,,天母愛舒眠心理治療所,無,02-28235600,是,0,,臺北市,25.113760476189,121.510998348958
臺北市文山區羅斯福路六段391號2樓,臺北市,2025/11/14,0,0,,0,,0,,拾月拾日心理治療所,無,0919-591010,是,0,,臺北市,24.992299994916,121.540822992819
臺北市大安區敦化南路二段59號7樓之1,臺北市,2025/12/01,0,0,,0,,0,,日好心理治療所,無,0979-659938,是,0,,臺北市,25.031196300421,121.549194334796
臺北市大同區南京西路41號8樓之2,臺北市,2025/11/27,0,0,,0,,0,,人生設計心理諮商所,無,0983-580856,是,0,,臺北市,25.053235006078,121.509366967487
臺北市松山區復興北路181號7樓之5,臺北市,2025/11/14,0,0,,0,,0,,財團法人加惠文教基金會附設心理諮商所,無,02-25582771,是,0,,臺北市,25.054746514677,121.544321766842
臺北市松山區健康路325巷24弄8號,臺北市,2025/11/24,0,0,,0,,0,,覓汨心理治療所,無,02-27587798,是,0,,臺北市,25.056428008273,121.568073984966
臺北市信義區基隆路一段149號12樓之2,臺北市,尚未更新,0,0,,0,,0,,荳點心理諮商所,無,0965-711589,是,0,,臺北市,25.042501979062,121.565585984646
臺北市中正區杭州南路一段131巷35-1號1樓,臺北市,2025/11/14,0,0,,0,,0,,開心心理諮商所,無,0971-252866,是,0,,臺北市,25.036125991045,121.527257972177
臺北市大安區忠孝東路四段153號6樓,臺北市,尚未更新,0,0,,0,,0,,大心診所,掛號費200元,02-27718821,是,0,,臺北市,25.041752008275,121.549917022488
臺北市中正區南昌路二段206號5樓之1,臺北市,2025/12/02,0,0,,0,,0,,大心古亭診所,掛號費200元,02-23676883,是,0,,臺北市,25.024036981642,121.524321959132
臺北市士林區福國路56巷17號1樓,臺北市,2025/12/01,0,0,,0,,0,,用心說心理治療所,無,0987-503531,是,0,,臺北市,25.102744980297,121.523199035564
臺北市中正區忠孝東路二段100號5樓之7,臺北市,2025/11/18,0,0,,0,,0,,捷思心理治療所,無,02-23210031、0919-003316,是,0,,臺北市,25.042762991527,121.530471007121
台中市北區雙十路二段101號5樓之五,臺中市,2025/11/24,0,0,,0,,0,,話嶼心理諮商所,無,04-22335920,是,0,,臺中市,24.155807012765,120.68979939478
台中市大里區新仁路二段96號,臺中市,2025/12/03,0,0,,0,,0,,明朗身心診所,掛號費250元,04-24836800,是,0,,臺中市,24.112190515518,120.691808752349
台中市西屯區大墩十九街151號,臺中市,2025/12/03,0,0,,0,,0,,向陽心理治療所,無,0985911807 或加入Line ID: @585xemue,是,0,,臺中市,24.15787030205,120.65251367197
台中市西屯區福雅路128巷58號,臺中市,2025/12/04,24,6,,6,,6,,心煦心理治療所,無,0970002995,是,6,,臺中市,24.184757687237,120.620739218137
台中市梧棲區民和路一段200號二樓,臺中市,2025/12/02,0,0,,0,,0,,寶貝心理諮商所,無,0966299469 或加入Line ID : @330mnqrw,是,0,,臺中市,24.249107958094,120.54930019316
台中市西區三民路一段170號4樓之2,臺中市,2025/12/02,0,0,,0,,0,,怡然心理治療所,無,0905467481,是,0,,臺中市,24.137647409987,120.674800314323
台中市西屯區市政北七路186號13樓之8,臺中市,2025/11/13,0,0,,0,,0,,訴心理諮商所,無,0908512345 或加入Line ID：@sulisten,是,0,,臺中市,24.165437609966,120.64128410101
台中市西屯區台灣大道四段1230巷20之6號,臺中市,2025/11/13,0,0,,0,,0,,葵心理諮商所,無,0905677538 或加入LINE ID:@sunflowercc,是,0,,臺中市,24.185529541663,120.611412705136
台中市中區柳川東路三段5號5樓,臺中市,2025/12/03,0,0,,0,,0,,如穎心理成長中心心理治療所,無,04-22282220,是,0,,臺中市,24.141666252469,120.676671718258
台中市北屯區軍福十三路327號,臺中市,2025/12/01,0,0,,0,,0,,心嶼心理治療所,無,0903645359,是,0,,臺中市,24.17242501591,120.721793035381
台中市沙鹿區光華路499號,臺中市,2025/11/13,0,0,,0,,0,,昕晴空間心理諮商所,無,04-26628880,是,0,,臺中市,24.243955004143,120.570437992257
台中市南屯區黎明路一段1144號,臺中市,2025/11/13,0,0,,0,,0,,靜馨心理治療所,無,04-23823966,是,0,,臺中市,24.141678015767,120.638225963636
臺中市西區博館路115號1樓,臺中市,2025/11/13,0,0,,0,,0,,廖慈凰身心診所,掛號費400元,04-23255018,是,0,,臺中市,24.156376604995,120.665290458438
台中市西屯區弘孝路207號,臺中市,2025/11/13,0,0,,0,,0,,心風景心理治療所,無,04-24520809,是,0,,臺中市,24.170659200368,120.648623379249
台中市北屯區大連路二段213號,臺中市,2025/12/02,0,0,,0,,0,,芙樂奇心理成長心理諮商所,無,048246028,是,0,,臺中市,24.175746009767,120.687805004738
台中市沙鹿區正德路72巷50號,臺中市,2025/11/17,0,0,,0,,0,,心門心理諮商所,無,04-23120896 或加入LINEID: @460xawyr ,是,0,,臺中市,24.205324991702,120.568452989947
臺中市北區太原八街110號,臺中市,2025/11/13,0,0,,0,,0,,相癒心理諮商所,無,04-22992811 或加入LINEID: @669mzvgc,是,0,,臺中市,24.16599299487,120.672555808291
台中市西區五權五街101號,臺中市,2025/11/28,0,0,,0,,0,,陽晴心理治療所,無,0908432988,是,0,,臺中市,24.136393603001,120.660666833008
台中市大甲區水源路215號1、2樓,臺中市,2025/11/20,0,0,,0,,0,,擁恆心理諮商所,無,0936185235,是,0,,臺中市,24.341620814214,120.62768949225
臺中市南屯區黎明東街429號,臺中市,2025/11/18,0,0,,0,,0,,晴朗心理諮商所,無,0908038706,是,0,,臺中市,24.150335809286,120.636366773693
臺中市南屯區豐富路160巷9號,臺中市,2025/11/17,0,0,,0,,0,,桐心理治療所,無,0953-971130,是,0,,臺中市,24.130028888644,120.648719603498
台中市南屯區永春東一路573號,臺中市,2025/11/13,0,0,,0,,0,,寬和心理諮商所,無,04-23829585,是,0,,臺中市,24.13055468543,120.641178237573
台中市南區德祥街15巷16號,臺中市,2025/11/17,0,0,,0,,0,,勵心心理諮商所,無,0928660285,是,0,,臺中市,24.120680007208,120.654307902164
臺中市東區東英五街88號2樓,臺中市,2025/11/13,0,0,,0,,0,,財團法人台中市私立慈光社會福利慈善事業基金會附設慈光社區心理諮商所,無,04-22153505,是,0,,臺中市,24.136188204464,120.704472503022
台中市北區文武街6號,臺中市,2025/11/13,0,0,,0,,0,,拾月拾日心理治療所,無,0919591010 或 LINEID:@1010psy,是,0,,臺中市,24.15386999685,120.676897969412
台中市豐原區葫蘆墩三街199號,臺中市,2025/11/13,0,0,,0,,0,,拾月拾日豐原心理治療所,無,0919591010 或 LINEID:@1010psy,是,0,,臺中市,24.262122611637,120.715268310492
台中市北區華中街25號,臺中市,2025/11/24,0,0,,0,,0,,一心心理諮商所,無,04-22075313,是,0,,臺中市,24.15683501128,120.671944013178
台中市南屯區五權西路二段478-1號,臺中市,2025/12/04,0,0,,0,,0,,蛹之生成長心理諮商所,無,0968-070-620,是,0,,臺中市,24.140680988385,120.64346297674
台中市南屯區大墩南路412號,臺中市,2025/12/04,9,3,,3,,3,,耕心心理諮商所,無,0912622798 或加入LINEID:@156frpfu,是,0,,臺中市,24.133954008172,120.650202613627
台中市太平區成功東路 55 巷 2 號,臺中市,2025/11/13,0,0,,0,,0,,竹見好轉心理諮商所,無,04-22788855 或加入LINEID: @getbetter,是,0,,臺中市,24.127560619703,120.720002171169
台中市南屯區文心路一段46-1號,臺中市,2025/12/04,0,0,,0,,0,,蛹之生心理諮商所,無,0968-070-620,是,0,,臺中市,24.138193993894,120.646805009175
台中市北區育德路2號,臺中市,2025/11/10,0,0,,0,,0,,中國醫藥大學附設醫院精神醫學部,掛號費150元,04-22052121#11853、11854,是,0,,臺中市,24.157741011194,120.680813994576
台中市太平區市民大道一段251號,臺中市,2025/12/02,0,0,,0,,0,,心喜心理治療所,無,04-22734567 或加入LINEID: ＠450hnjfs,是,0,,臺中市,24.142776296541,120.713058840815
台中市沙鹿區北勢東路748號1樓,臺中市,2025/12/01,0,0,,0,,0,,自在心理治療所,無,0958265826 或加入LINEID:@freeandeasy,是,0,,臺中市,24.229925919431,120.570601523188
台中市北屯區太原路三段150巷8弄15號,臺中市,2025/11/13,0,0,,0,,0,,哲石情感心理諮商所,無,04-22333385 或加入LINE ID: Phistonemind,是,0,,臺中市,24.164048980067,120.689416006529
臺中市北屯區天津路四段294號,臺中市,2025/11/10,0,0,,0,,0,,日希心理成長中心心理治療所,無,04-22334789 或加入LINEID:@797kxxjz,是,0,,臺中市,24.169942002823,120.693124998684
臺中市大里區益民路一段78巷40號,臺中市,2025/12/01,0,0,,0,,0,,與橋心理諮商所,無,0960908585,是,0,,臺中市,24.109859808399,120.692589981804
臺南市關廟區南雄路二段30號,臺南市,尚未更新,0,0,,0,,0,,這會心理諮商所,無,0918071281,是,0,,臺南市,22.960623601899,120.328159583885
臺南市永康區中華路23巷1號,臺南市,2025/11/11,0,0,,0,,0,,慈恩心理治療所,自付場地費400元,06-3126267,是,0,,臺南市,22.998786616604,120.234277909731
臺南市北區海安路三段985巷27弄13號,臺南市,2025/12/01,0,0,,0,,0,,看見光亮心理諮商所,無,06-3584327,是,0,,臺南市,23.018771001612,120.199190005753
臺南市安平區安平路428號2樓,臺南市,2025/11/11,0,0,,0,,0,,元品心理諮商所,無,06-2229592,是,0,,臺南市,22.998246319126,120.173910185776
臺南市東區慶東街214號,臺南市,2025/11/18,0,0,,0,,0,,自然就好心理諮商所,無,06-2752858,是,0,,臺南市,22.991953018583,120.216654120114
臺南市新化區中山路20號,臺南市,2025/11/11,0,0,,0,,0,,財團法人台灣省私立台南仁愛之家附設仁馨醫院,無,06─5902336＃28,是,0,,臺南市,23.051096481761,120.319738285765
臺南市東區育樂街166-4號4樓,臺南市,2025/11/11,0,0,,0,,0,,樂驛心理諮商所,無,06-2095055,是,0,,臺南市,22.994980981105,120.21458898681
臺南市北區開元里北園街124巷10弄64號2樓,臺南市,2025/12/01,0,0,,0,,0,,緩緩心理諮商所,自付場地費400元,0902009832,是,0,,臺南市,23.01413199539,120.224553980038
臺南市善化區文昌路42-1號,臺南市,2025/12/01,0,0,,0,,0,,伴行心理治療所,行政費400元,0975124951,是,0,,臺南市,23.128733985652,120.289334021643
臺南市麻豆區埤頭里麻佳路一段207號,臺南市,2025/11/18,6,0,,0,,3,,台灣基督長老教會新樓醫療財團法人麻豆新樓醫院,掛號費120元,06-5702228,是,3,,臺南市,23.183983449597,120.23845795433
臺南市南區新興里夏林路167號1樓,臺南市,2025/12/01,0,0,,0,,0,,日安心理治療所,掛號費200元,06-2643939,是,0,,臺南市,22.980083782682,120.195375988351
臺南市東區東門路二段205號,臺南市,2025/11/11,0,0,,0,,0,,蕭文勝診所,掛號費200元,062755088,是,0,,臺南市,22.984789005939,120.224722037196
臺南市北區長榮路四段141號,臺南市,2025/11/11,0,0,,0,,0,,蕭尹瑩身心診所,掛號費200元,062002268,是,0,,臺南市,23.006011020861,120.221777977525
臺南市安南區怡安路一段98號,臺南市,2025/12/01,0,0,,0,,0,,繪日藝術心理諮商所,自付場地費400元。如進行藝術治療媒材費200元另計。,（06）3565588,是,0,,臺南市,23.040927179642,120.212777573714
臺南市安平區永華二街183號1樓,臺南市,2025/12/01,2,0,,0,,2,,看見愛心理諮商所,無,06-2977769,是,0,,臺南市,22.98817198397,120.184269966643
臺南市北區育德一街227號,臺南市,2025/11/11,0,0,,0,,0,,寬欣心理治療所,無,06-2510966,是,0,,臺南市,23.016546989333,120.205519013203
臺南市北區中華北路二段80巷65號,臺南市,2025/12/02,23,10,,10,,3,,禾心心理諮商所,自付場地費400元,06-3587725,是,0,,臺南市,23.017479015057,120.197379011753
臺南市仁德區裕忠路539號,臺南市,2025/11/11,0,0,,0,,0,,衛生福利部嘉南療養院,無,06-2795019#1183,是,0,,臺南市,22.977767680592,120.2414060382
臺南市東區崇明路399號2樓,臺南市,2025/12/03,22,12,,0,,8,,深藏心理治療所,行政處理費250元（單次）,0963689820,是,2,,臺南市,22.973902003362,120.223841015354
臺南市白河區中山路2-53號,臺南市,尚未更新,0,0,,0,,0,,白河林眼科診所,掛號費50元+部份負擔50元,066831116,是,0,,臺南市,23.346592180127,120.413362300216
臺南市北區林森路三段77號2樓,臺南市,2025/12/01,0,0,,0,,0,,上善心理治療所,無,06-237-5555,是,0,,臺南市,23.003267582042,120.224440321431
臺南市安平區建平七街453巷75號2樓之2,臺南市,2025/12/03,7,1,,1,,1,,好心情心理諮商所,場地費200元,0909334443,是,4,,臺南市,22.987641347933,120.175229550619
臺南市永康區東橋十街20號,臺南市,2025/12/01,10,5,,0,,5,,欣橋心理治療所,行政費用400元,0937-800-681、06-3022820,是,0,,臺南市,23.021648089877,120.232006916884
臺南市玉井區中山路416號,臺南市,2025/11/11,0,0,,0,,0,,山實心理諮商所,場地費250元,0910370032,是,0,,臺南市,23.124930906633,120.466136187532
臺南市永康區東橋一路552號,臺南市,2025/12/01,2,0,,0,,0,,星語心理治療所,無,0938057530,是,2,,臺南市,23.024923318543,120.233042584841
臺南市永康區東橋十街118號2樓,臺南市,2025/12/01,0,0,,0,,0,,真心診所,掛號費250元,06-3036002,是,0,,臺南市,23.022398982673,120.233322959502
臺南市南區金華路一段486號2樓,臺南市,尚未更新,0,0,,0,,0,,康舟診所,掛號費250元,06-2655345,是,0,,臺南市,22.973240000649,120.190925030127
臺南市安平區郡平路305號1、2樓,臺南市,2025/11/11,0,0,,0,,0,,聽見‧覺旅心理諮商所,行政管理費200元,0978461808,是,0,,臺南市,22.989458019375,120.164305027651
臺南市南區三和街9號,臺南市,2025/11/11,0,0,,0,,0,,禾覓心理諮商所,行政費200元,0933322398,是,0,,臺南市,22.980939994092,120.193173978568
臺南市中西區友愛街237號,臺南市,2025/11/11,0,0,,0,,0,,好家在心理諮商所,無,0909522499,是,0,,臺南市,22.991921712175,120.196814993488
臺南市安平區文平路428號2樓,臺南市,2025/11/11,0,0,,0,,0,,和朗心理諮商所,無,06-2993800,是,0,,臺南市,22.993081516117,120.178921306589
高雄市三民區澄清路620號2樓,高雄市,2025/12/03,0,0,,0,,0,,小魚兒心理治療所,行政處理費500元,(07)398-0118,是,0,,高雄市,22.644273979889,120.346577977923
高雄市三民區澄和路25號,高雄市,2025/11/28,0,0,,0,,0,,小魚兒心理成長空間心理治療所,行政處理費500元,(07)398-0118,是,0,,高雄市,22.644211995715,120.345459999677
高雄市左營區至聖路3號,高雄市,2025/11/13,0,0,,0,,0,,盼望心理治療所,行政處理費200元,(07)550-6592,是,0,,高雄市,22.65953499482,120.311455959599
高雄市鼓山區美術東三路23號,高雄市,2025/12/02,0,0,,0,,0,,微風心理治療所,行政處理費400元,0911-901-899,是,0,,高雄市,22.657200006143,120.292940000209
高雄市新興區八德一路212號2樓,高雄市,2025/11/25,0,0,,0,,0,,繪星心理治療所,平日白天18:00前:行政處理費400+掛號費100元，夜間18:00後含週六：行政處理費900+掛號費100元 ,(07)236-2585,是,0,,高雄市,22.635752015112,120.307624004924
高雄市苓雅區正大路119號2樓,高雄市,2025/11/19,0,0,,0,,0,,禾好心理治療所,行政處理費600元,0912-208-826,是,0,,高雄市,22.633251819123,120.332524292326
高雄市鼓山區美術北一街81號,高雄市,2025/11/19,0,0,,0,,0,,美術館禾好心理治療所,行政處理費600元,0912-208-826,是,0,,高雄市,22.662919020589,120.286695985257
高雄市苓雅區中正二路131號,高雄市,2025/11/13,0,0,,0,,0,,心托邦心理治療所,行政處理費200元,0983-769-055,是,0,,高雄市,22.630209984551,120.315578011943
高雄市三民區建元路56號2樓,高雄市,2025/11/13,0,0,,0,,0,,方泊心理諮商所,行政處理費400元,(07)395-9000,是,0,,高雄市,22.646710012409,120.317665022014
高雄市苓雅區林德街10巷15號4樓,高雄市,2025/11/13,0,0,,0,,0,,散步後花園心理諮商所,無,Line ID：@048mljoz,是,0,,高雄市,22.624428985931,120.316414022966
高雄市左營區站前北路100號4樓,高雄市,2025/12/01,0,0,,0,,0,,回甘心理諮商所,無,(07)588-9880,是,0,,高雄市,22.688623006776,120.30573204174
高雄市三民區安泰里天津街255巷24號5樓,高雄市,2025/11/13,0,0,,0,,0,,敲敲話心理諮商所,行政處理費400元,Line ID：@008josxk,是,0,,高雄市,22.650673982059,120.30056300587
高雄市鼓山區華榮路228號7樓,高雄市,2025/11/13,0,0,,0,,0,,繪心庭心理諮商所(可協助偏鄉),無,(07)553-0101,是,0,,高雄市,22.664263016854,120.297177974273
高雄市左營區裕誠路188號2樓,高雄市,2025/11/13,0,0,,0,,0,,綠野仙蹤心理諮商所,無,(07)550-8216,是,0,,高雄市,22.664501984913,120.3107979802
高雄市前鎮區文橫三路194-3號,高雄市,2025/11/10,0,0,,0,,0,,小宅心理諮商所,行政處理費400元,0918-061-622,是,0,,高雄市,22.614431219462,120.30714221313
高雄市三民區臥龍路54巷32號,高雄市,2025/11/11,0,0,,0,,0,,予愛心理諮商所,行政處理費200元,0905-923-518,是,0,,高雄市,22.638038011565,120.331026027133
高雄市三民區明仁路58號,高雄市,2025/12/02,0,0,,0,,0,,伴心理諮商所,無,(07)345-1358,是,0,,高雄市,22.66220651691,120.314377807227
高雄市左營區重光路82號,高雄市,2025/11/13,0,0,,0,,0,,遇見心理諮商所,無,(07)345-3569,是,0,,高雄市,22.681220989992,120.302424961842
高雄市苓雅區成功一路232號13樓之9,高雄市,2025/11/24,0,0,,0,,0,,心蘊心理諮商所,無,Line ID：@mc2020,是,0,,高雄市,22.617721996558,120.296507002924
高雄市鳳山區青年路一段262巷39號1樓,高雄市,2025/11/13,0,0,,0,,0,,浪心人心理諮商所,行政處理費200元,0921-311-675,是,0,,高雄市,22.62408801011,120.351751037106
高雄市三民區建工路587號,高雄市,2025/12/01,0,0,,0,,0,,心悅診所,掛號費200元,(07)380-5562,是,0,,高雄市,22.648272985894,120.320036010966
高雄市苓雅區凱旋二路130號,高雄市,2025/11/13,0,0,,0,,0,,高雄市立凱旋醫院,無,(07)751-3171,是,0,,高雄市,22.625115002797,120.324095031397
高雄市大寮區後庄里鳳屏一路509號,高雄市,2025/12/01,24,6,,6,,6,,財團法人台灣省私立高雄仁愛之家附設慈惠醫院,掛號費100元,(07)703-0315,是,6,,高雄市,22.638684004843,120.39726200532
高雄市三民區自由一路100號,高雄市,2025/11/13,0,0,,0,,0,,財團法人私立高雄醫學大學附設中和紀念醫院,掛號費150元,(07)312-1101分機6751,是,0,,高雄市,22.645186014774,120.309630967821
高雄市左營區至聖路312號17樓之三,高雄市,2025/11/13,0,0,,0,,0,,芯耕圓心理諮商所,無,(07)556-7315,是,0,,高雄市,22.659750996465,120.303331967584
高雄市左營區南屏路259-1號1樓,高雄市,2025/11/21,0,0,,0,,0,,繪星巨蛋館心理治療所,平日白天18:00前：行政處理費400，掛號費100元 夜間18:00後含週六：行政處理費900，掛號費100元,(07)552-2858,是,0,,高雄市,22.66936998473,120.298350015794
高雄市三民區建工路585號2樓,高雄市,2025/11/13,0,0,,0,,0,,小宇宙心理治療所,行政處理費200元,(07)380-5160,是,0,,高雄市,22.648279984784,120.320079010129
高雄市鳳山區建國路三段248號,高雄市,2025/11/21,0,0,,0,,0,,暖心心理諮商所,無,(07)777-6248,是,0,,高雄市,22.637550017162,120.351430010214
高雄市前金區中正四路235號9樓之5,高雄市,2025/11/18,0,0,,0,,0,,心和心理諮商所,行政管理費600元,(07)215-5838、0963-985-063,是,0,,高雄市,22.627972016403,120.292676976087
高雄市新興區中正二路192號6樓之1,高雄市,2025/11/13,0,0,,0,,0,,大海心理諮商所,行政費用200元整,0910-538-598,是,0,,高雄市,22.630591989788,120.316207995785
高雄市楠梓區土庫一路178號,高雄市,2025/12/04,0,0,,0,,0,,蛹之生心理諮商所,無,0968-070-620或至官網填寫預約表單,是,0,,高雄市,22.736434011132,120.329015962933
新竹市食品路177巷23號,新竹市,2025/11/10,0,0,,0,,0,,理心潛能心理諮商所,無,0933357785,是,0,,新竹市,24.796225989608,120.976341963269
新竹市東區新光路83號,新竹市,2025/11/10,0,0,,0,,0,,杜華心苑心理諮商所,掛號費平日200元  假日400元,03-5736178,是,0,,新竹市,24.80370700583,120.989299966483
新竹市東大路二段3號3樓,新竹市,2025/11/28,0,0,,0,,0,,寬心自在心理諮商所,18歲以上成人-掛號費200元18歲以下青少年-掛號費400元,03-5426695,是,0,,新竹市,24.819728217694,120.961984433571
嘉義市東區保建街100號7樓,嘉義市,2025/12/03,14,5,,3,,3,,戴德森醫療財團法人嘉義基督教醫院,日間100元；夜間、假日150元(遵循方案原則，本院於醫事作業每次收取掛號費),05-2765041#8585,是,3,,嘉義市,23.478642,120.453488
嘉義市東區吳鳳北路252號,嘉義市,2025/12/03,4,0,,0,,2,,陽明醫院,掛號費150元,05-2252000#3679,是,2,,嘉義市,23.480569987316,120.453190002801
嘉義市東區安和街234號,嘉義市,2025/12/02,0,0,,0,,0,,欣明心理治療所,掛號費150元(自114年4月1日起增收),05-2787282,是,0,,嘉義市,23.486184982344,120.457586981569
嘉義市西區中山路523號,嘉義市,2025/11/30,24,6,,6,,6,,知心連冀診所,無,05-2286808,是,6,,嘉義市,23.479319994095,120.444360003082
嘉義市西區德安路31號,嘉義市,2025/12/02,0,0,,0,,0,,小足跡心理治療所,無,05-2330031,是,0,,嘉義市,23.483895004487,120.432665990867
嘉義市東區小雅路353號1樓,嘉義市,2025/12/03,4,1,,1,,1,,覓祈心理諮商所,無,05-2785175,是,1,,嘉義市,23.474370019266,120.473229959828
新北市板橋區館前東路22號六樓,新北市,2025/11/25,0,0,,0,,0,,知芯心理治療所,行政費400元,(02)2952-8180,是,0,,新北市,25.007023017391,121.460184977139
新北市板橋區縣民大道一段104號2樓,新北市,2025/12/01,0,0,,0,,0,,拾心心理治療所,行政處理費(平日18:00前)：600元行政處理費(平日18:00後、周六)：1000元,0909-617-628,是,0,,新北市,25.005542982838,121.457022987985
新北市板橋區文化路二段182巷1弄15號2樓,新北市,2025/12/01,0,0,,0,,0,,悅現心理治療所,掛號費500元(僅需第一次前來時繳納),(02)2255-6580,是,0,,新北市,25.027926017078,121.471292004674
新北市新莊區中平路377巷43號1樓,新北市,2025/12/02,0,0,,0,,0,,好安心心理治療所,掛號費200元,(02)8521-9843,是,0,,新北市,25.05238298562,121.4431569732
新北市新莊區明中街38號8樓,新北市,2025/11/19,0,0,,0,,0,,漱心坊心理治療所,掛號費150元（具重大傷病、身心障礙、中低收入等掛號費100元）,(02)8991-4930,是,0,,新北市,25.039665417299,121.456968673252
新北市新店區北新路二段177-3號4樓,新北市,2025/11/25,0,0,,0,,0,,知芯新店心理治療所,行政費400元,(02)8914-5945,是,0,,新北市,24.977029005521,121.542657037053
新北市三重區三光街30巷10號,新北市,2025/11/24,0,0,,0,,0,,沐昕心理治療所,行政手續費500元,(02)29800479/0909-270-237,是,0,,新北市,25.060656007873,121.484252019545
新北市永和區博愛街10號1樓,新北市,尚未更新,0,0,,0,,0,,養心心理治療所,掛號費400元場地設備維護費500元,(02)8928-0123,是,0,,新北市,25.015695982154,121.516785035616
新北市板橋區文化路一段46巷38號,新北市,2025/12/04,0,0,,0,,0,,蛹之生心理諮商所,無,0968-070-620,是,0,,新北市,25.011165018664,121.460426040674
新北市板橋區莒光路39巷10號4樓,新北市,2025/11/12,0,0,,0,,0,,心語心理諮商所,行政費300元,(02)2250-0002,是,0,,新北市,25.024999517493,121.470867796555
新北市板橋區介壽街84巷3號2樓,新北市,尚未更新,0,0,,0,,0,,板橋小宅心理諮商所,行政費600元,0906-843-319,是,0,,新北市,25.018204015222,121.469202563851
新北市板橋區新民街27號7樓,新北市,2025/12/01,0,0,,0,,0,,同在心理諮商所,臨時失約需支付1000元行政管理費,0905-168-815,是,0,,新北市,25.010267400653,121.464074683126
新北市新店區永新街30號3樓,新北市,2025/11/28,0,0,,0,,0,,南方心理諮商所,行政費400元,(02)2916-0135,是,0,,新北市,24.9751730007,121.544090007219
新北市新店區三民路65號2樓,新北市,2025/11/26,0,0,,0,,0,,小漁村心理諮商所,行政費用300元,(02)8914-7484,是,0,,新北市,24.971156979432,121.536369017109
新北市新店區民權路41號5樓,新北市,2025/11/24,0,0,,0,,0,,大山心理諮商所,無,0981-418-723,是,0,,新北市,24.982728993046,121.540463995906
新北市三重區仁美街108巷25號1樓,新北市,2025/11/19,0,0,,0,,0,,雨止晴拾心理諮商所,無,(02)7751-8779,是,0,,新北市,25.080525979903,121.4843909915
新北市三重區重新路四段53號11樓,新北市,2025/12/01,0,0,,0,,0,,點心語心理諮商所,無,0979-772-735,是,0,,新北市,25.057539993458,121.48772900062
新北市三重區重陽路四段42號2樓,新北市,2025/11/18,0,0,,0,,0,,喜樂心理諮商所,掛號費200元,(02)2981-0715,是,0,,新北市,25.070060000322,121.491466994161
新北市三重區重陽路一段89號6樓之5,新北市,2025/11/11,0,0,,0,,0,,方煦心理諮商所,無,(02)8985-3002,是,0,,新北市,25.059179703267,121.486880081467
新北市林口區仁愛二路77號1樓,新北市,2025/11/29,1,0,,0,,0,,覓心理諮商所,行政費用400元,0965-833-520,是,1,,新北市,25.075716611499,121.368091079112
新北市林口區仁愛路二段502號2樓之3,新北市,2025/11/17,0,0,,0,,0,,家好心理諮商所,行政費500元,0972-706-289(02)2601-2992,是,0,,新北市,25.076562094072,121.37530756247
新北市中和區中安街178巷18弄25號1樓,新北市,2025/12/04,0,0,,0,,0,,蛹之生生不息心理諮商所,無,0968-070-620,是,0,,新北市,24.999492003117,121.510074986848
新北市土城區永安街103號5樓,新北市,2025/11/11,0,0,,0,,0,,理馨心理諮商所,行政費300元,0968-989-195,是,0,,新北市,24.964035002032,121.429888001378
新北市永和區竹林路21號3樓,新北市,2025/11/23,0,0,,0,,0,,頂溪心理諮商所,無,(02)8927-3456,是,0,,新北市,25.014979999985,121.517068008667
新北市新店區中央七街26號2樓,新北市,2025/11/27,15,5,,0,,5,,賽斯身心靈診所,掛號費100元,(02)2218-0875,是,5,,新北市,24.975119985163,121.529593002763
新北市新店區中興路三段250號1樓,新北市,2025/12/03,11,2,,0,,5,,治聿身心醫學診所,掛號費250元,(02)2218-8374,是,4,,新北市,24.984091010403,121.543048974845
新北市八里區華富山33號,新北市,尚未更新,0,0,,0,,0,,衛生福利部八里療養院,無,(02)2610-1660,是,0,,新北市,25.139642,121.411949
新北市土城區青雲路6號,新北市,尚未更新,0,0,,0,,0,,衛生福利部八里療養院土城院區,無,(02)2274-5250,是,0,,新北市,24.989583001002,121.460107025439
新北市蘆洲區長樂路148號,新北市,尚未更新,0,0,,0,,0,,衛生福利部八里療養院蘆洲院區,無,(02)8285-6224,是,0,,新北市,25.090552412481,121.462432919751
新北市淡水區民生路45號,新北市,2025/11/19,0,0,,0,,0,,台灣基督長老教會馬偕醫療財團法人淡水馬偕紀念醫院,掛號費150元,自殺防治中心：(02)2809-4661轉2778,是,0,,新北市,25.137990194712,121.46200395093
新北市板橋區文化路一段147號7樓之2,新北市,2025/12/01,0,0,,0,,0,,米露谷板橋心理治療所,【平日18:00前】掛號費$100+行政費$300 【平日18:00後及週末】掛號費$100+行政費$500,(02)2271-0754,是,0,,新北市,25.015906996567,121.462160004984
新北市新店區民權路77號9樓,新北市,2025/11/13,0,0,,0,,0,,米露谷新店心理治療所,【平日18:00前】掛號費$100+行政費$300 【平日18:00後及週末】掛號費$100+行政費$500,(02)2918-6620,是,0,,新北市,24.982824001919,121.538466001646
新北市中和區連勝街28號2樓,新北市,2025/11/13,0,0,,0,,0,,米露谷心理治療所,【平日18:00前】掛號費$100+行政費$300 【平日18:00後及週末】掛號費$100+行政費$500,(02)8245-8820,是,0,,新北市,24.997878989669,121.498190034879
新北市板橋區華江一路608號7樓,新北市,2025/11/23,0,0,,0,,0,,回家心理諮商所,自付行政費 : 200元/次,0912-608-017,是,0,,新北市,25.032644090398,121.465271167017
新北市新店區二十張路33巷2弄3號1樓,新北市,尚未更新,0,0,,0,,0,,沐樂心理諮商所,無,(02)2915-0060,是,0,,新北市,24.980436968647,121.539756492386
新北市三重區光復路一段70號4樓,新北市,尚未更新,0,0,,0,,0,,佳好+good心理諮商所,場地費400元,(02)8512-2660,是,0,,新北市,25.049435698916,121.471902877778
新北市林口區文化三路一段205號1、2樓,新北市,2025/12/01,0,0,,0,,0,,林口抱抱心身醫學診所,掛號費600元,(02)2606-9578,是,0,,新北市,25.070474988348,121.362413010263
新北市三重區集仁街158號,新北市,尚未更新,0,0,,0,,0,,好安心蘆洲心理治療所,掛號費200元,(02)2855-9478,是,0,,新北市,25.086527003481,121.484658960944
新北市板橋區文化路一段188巷18號2樓,新北市,2025/12/01,0,0,,0,,0,,同心心理諮商所,臨時失約需支付1000元行政管理費,0905-919-815,是,0,,新北市,25.019448015382,121.466174014595
新北市新店區中央七街67號1樓,新北市,2025/11/11,0,0,,0,,0,,沐居心理諮商所,無,0910-752-203,是,0,,新北市,24.976469094388,121.527775135603
新北市新莊區新知一路69號9樓,新北市,2025/11/11,0,0,,0,,0,,明心心理治療所,行政費400元,0908-512-165,是,0,,新北市,25.062106685019,121.462849704197
新北市板橋區文化路一段135號6樓,新北市,2025/11/13,0,0,,0,,0,,米露谷板橋兒青暨育才中心心理治療所,【平日18:00前】掛號費$100+行政費$300 【平日18:00後及週末】掛號費$100+行政費$500,(02)2272-7336,是,0,,新北市,25.015259997461,121.461985996674
桃園市蘆竹區光明路一段60巷22號,桃園市,2025/11/26,0,0,,0,,0,,謐時光心理諮商所,行政掛號費400元,033128327,是,0,,桃園市,25.044403916711,121.291668322539
桃園市大園區大觀路910號,桃園市,2025/11/13,0,0,,0,,0,,居善醫院,掛號費100元,03-3866511,是,0,,桃園市,25.058658013613,121.165732993356
桃園市蘆竹區南平街35號B1,桃園市,2025/11/13,0,0,,0,,0,,尼思湖心理諮商所,行政管理暨場地費400元,03-2122721 ; 0916-832895,是,0,,桃園市,25.04538935073,121.291192418167
桃園市桃園區龍壽街71號,桃園市,2025/11/21,0,0,,0,,0,,衛生福利部桃園療養院,掛號費150元,03-3698553分機2301-2308,是,0,,桃園市,24.978934002565,121.269127959977
桃園市桃園區國際路2段18號1樓,桃園市,2025/11/13,0,0,,0,,0,,放心心理治療所,行政場地費400元,033790885,是,0,,桃園市,24.994509572336,121.287906196692
桃園市桃園區大有路632號2樓,桃園市,2025/11/13,0,0,,0,,0,,廢墟花園心理諮商所,無,0911-609099 03-3259546,是,0,,桃園市,25.015577001039,121.317091975974
桃園市中壢區青峰路一段53-55號8樓,桃園市,2025/11/13,0,0,,0,,0,,芯明心理治療所,掛號費400元,0907-010107、03-4223516,是,0,,桃園市,25.015010216746,121.218566978918
桃園市桃園區同德二街160號之2-3樓,桃園市,2025/12/01,0,0,,0,,0,,澈心理諮商所,無,03-3579128,是,0,,桃園市,25.01021400793,121.299977973709
桃園市桃園區忠一路15號,桃園市,2025/11/26,51,17,,0,,17,,心園心理治療所,行政掛號費400元,03-3317485,是,17,,桃園市,24.995858992914,121.302260030667
桃園市桃園區大有路360號1樓,桃園市,2025/11/13,0,0,,0,,0,,心晴診所,無,03/3467895,是,0,,桃園市,25.01056889771,121.319618533049
桃園市桃園區大有路508號2樓,桃園市,2025/11/21,0,0,,0,,0,,野薑花心理諮商所,無,(03)355-9779,是,0,,桃園市,25.013544012333,121.31821598919
新竹縣寶山鄉雙豐二街75號1樓,新竹縣,2025/11/25,0,0,,0,,0,,益鼎升心理諮商所,無,0931421391;03-6220303;03-6220305,是,0,,新竹縣,24.768061202377,120.990583235859
新竹縣竹北市六家五路一段335、337號,新竹縣,2025/11/28,0,0,,0,,0,,青空心理治療所,行政處理費400元,0972-512295,是,0,,新竹縣,24.806792414405,121.030810335686
新竹縣竹北市文信路23號1樓,新竹縣,2025/12/04,0,0,,0,,0,,拾光心理諮商所,無,03-5583800,是,0,,新竹縣,24.831639991529,121.014560005169
新竹縣竹北市成功11街150號2樓,新竹縣,2025/11/12,0,0,,0,,0,,沐光心理諮商所,行政費500保證金600(結案後退回),03-6578521,是,0,,新竹縣,24.814262001223,121.02321499075
宜蘭縣礁溪鄉仁愛路11巷5號,宜蘭縣,2025/11/24,0,0,,0,,0,,伴心理諮商所,無,0975-087710,是,0,,宜蘭縣,24.827913984111,121.771308985432
宜蘭縣羅東鎮康莊路42號,宜蘭縣,2025/11/24,0,0,,0,,0,,聊癒心理諮商所,400元(行政與場地費用),0930121253,是,0,,宜蘭縣,24.669964017658,121.777077997931
宜蘭市中山路一段660號,宜蘭縣,2025/11/24,0,0,,0,,0,,永恩心理諮商所,無,0976-026667,是,0,,宜蘭縣,24.7395685072,121.760002110503
宜蘭市民權新路340號一樓,宜蘭縣,2025/11/24,0,0,,0,,0,,馨家心理治療所,無,0963621858,是,0,,宜蘭縣,24.752986600973,121.742488230459
宜蘭縣礁溪鄉和平路16巷1號,宜蘭縣,2025/11/24,0,0,,0,,0,,宜然自得心理諮商所,無,03-9109776,是,0,,宜蘭縣,24.822728016797,121.769344015871
宜蘭縣五結鄉二結路370號2樓,宜蘭縣,2025/11/24,0,0,,0,,0,,立心理諮商所,無,0908-166-003,是,0,,宜蘭縣,24.70771791167,121.770348000233
苗栗縣頭份市斗煥里11鄰群英路85巷1號,苗栗縣,2025/12/03,0,0,,0,,0,,逍遙心理諮商所,無,03-5729385,是,0,,苗栗縣,24.6863288,120.9129373
苗栗縣後龍鎮新東路426號,苗栗縣,2025/12/04,0,0,,0,,0,,度情心理諮商所,無,037-728869,是,0,,苗栗縣,24.603105012608,120.816698978104
彰化市金馬路三段135號,彰化縣,2025/12/03,0,0,,0,,0,,真宸心理治療所,無,0909-506501,是,0,,彰化縣,24.087728811066,120.533356040595
彰化縣員林市南和街64號,彰化縣,2025/11/24,0,0,,0,,0,,芙樂奇心理諮商所,無,04-8346028,是,0,,彰化縣,23.958088017049,120.567061007287
彰化縣員林市浮圳路二段470號,彰化縣,2025/11/24,0,0,,0,,0,,四季心心理諮商所,無,0966-189708,是,0,,彰化縣,23.965214017762,120.575520023972
彰化市進德路1號(綜合中心3樓),彰化縣,2025/11/24,0,0,,0,,0,,彰化師大社區心理諮商所,無,04-7289258,是,0,,彰化縣,24.081515019797,120.558555973954
彰化縣彰化市南校街135號;中華路176號;旭光路235號;旭光路320號,彰化縣,2025/11/24,0,0,,0,,0,,彰化基督教醫療財團法人彰化基督教醫院,無,04-7238595,是,0,,彰化縣,24.0808221,120.5422446
彰化縣和美鎮中圍里彰新路三段531號,彰化縣,2025/11/25,1,0,,0,,0,,修慧身心科診所,掛號費150元,04-7266158,是,1,,彰化縣,24.114808899188,120.528322026134
彰化縣鹿港鎮埔崙里自由路301號,彰化縣,2025/11/24,0,0,,0,,0,,安晴心理治療所,,0963682903,是,0,,彰化縣,24.06439603205,120.438248719533
彰化市進德路79號1樓,彰化縣,2025/11/24,0,0,,0,,0,,聽聽心裡詩心理治療所,200,04-7030677,是,0,,彰化縣,24.085680993314,120.55853895869
彰化縣二林鎮照西路305巷11號,彰化縣,2025/11/24,0,0,,0,,0,,心生心理諮商所,無,0917-252023,是,0,,彰化縣,23.903136301741,120.365655021912
南投縣草屯鎮玉屏路161號,南投縣,2025/11/18,3,0,,0,,0,,衛生福利部草屯療養院,無,049-2550800,是,3,,南投縣,23.990398996505,120.704527907402
南投縣南投市復興路478號,南投縣,2025/11/21,0,0,,0,,0,,衛生福利部南投醫院,無,049-2231150#2128,是,0,,南投縣,23.969669292667,120.66834348285
南投市康壽里南陽路415號,南投縣,2025/12/03,0,0,,0,,0,,致遠身心科診所,掛號費150元,049-2248282,是,0,,南投縣,23.912615689408,120.682144873162
花蓮縣玉里鎮中華路448號,花蓮縣,2025/12/04,9,3,,3,,3,,衛生福利部玉里醫院,無,03-8886141,是,0,,花蓮縣,23.347943991346,121.319010273846
花蓮縣吉安鄉永安村明仁二街176巷1號1樓,花蓮縣,2025/11/18,0,0,,0,,0,,力美心靈空間心理諮商所,掛號費100元,0920135290,是,0,,花蓮縣,23.990303987633,121.575877033908
花蓮縣吉安鄉仁里五街146號,花蓮縣,2025/11/25,0,0,,0,,0,,秘密花園心理諮商所,無,0918096864,是,0,,花蓮縣,23.969567997367,121.588212010259
花蓮市花崗街62號,花蓮縣,2025/11/18,0,0,,0,,0,,昔日如今心理諮商所,行政處理費400元,03-8335110,是,0,,花蓮縣,23.978711983179,121.613490992046
花蓮市大同街9之4號,花蓮縣,2025/11/18,0,0,,0,,0,,光陰時繫心理治療所,行政處理費400元,0905019866,是,0,,花蓮縣,23.9821734,121.6068468
花蓮市民政里31號鄰中美路113之2號1-2樓,花蓮縣,2025/11/24,0,0,,0,,0,,銘心身心診所,無,(03)8226116,是,0,,花蓮縣,23.992507003244,121.626663991076
花蓮巿和平路362號4樓之1,花蓮縣,2025/11/18,0,0,,0,,0,,本然心理諮商所,行政掛號費150元,Line ID：peaceshilim,是,0,,花蓮縣,23.974115012202,121.603517030181
臺東市勝利街72號,臺東縣,2025/11/18,0,0,,0,,0,,凝鏡心理治療所,場地費400元,0906363088,是,0,,臺東縣,22.762984988635,121.155474968793
臺東市傳廣路445號2樓,臺東縣,2025/12/01,20,5,,5,,5,,第3空間,行政費300元,官方line：@361tbmgk,是,5,,臺東縣,22.766219984165,121.143717002656
臺東市同樂街33號,臺東縣,2025/11/11,0,0,,0,,0,,心鏡心理諮商所,行政費300元,0901063035,是,0,,臺東縣,22.755360013226,121.156329000907
臺東市更生路419巷16號,臺東縣,2025/12/02,0,0,,0,,0,,茁然谷心理諮商所,無,0965518580,是,0,,臺東縣,22.762609018368,121.141293962086
