scraped_county_name,orgName,address,phone,payDetail,strTeleconsultation,thisWeekCount,nextWeekCount,next2WeekCount,next3WeekCount,editDate,lat,lng
臺北市,臺北市立聯合醫院松德院區,臺北市信義區松德路309號,02-27263141轉1394,掛號費50元,是,0,0,0,0,2025/11/17,25.030479982975,121.574885035667
臺北市,臺北市立聯合醫院仁愛院區,臺北市大安區仁愛路四段10號,02-27093600轉5546,掛號費50元,是,0,0,0,0,尚未更新,25.03754001811,121.545302281876
臺北市,臺北市立聯合醫院和平婦幼院區,臺北市中正區中華路二段33號,02-23889595轉8004、8001,掛號費50元,否,0,0,0,0,尚未更新,25.035591979993,121.506708982171
臺北市,長庚醫療財團法人台北長庚紀念醫院,臺北市松山區敦化北路199號,03-3281200轉2439或2479,掛號費100元,否,0,0,0,0,2025/11/14,25.055483996428,121.549679982266
臺北市,臺北醫學大學附設醫院,臺北市信義區吳興街252號,02-27372181轉3661,掛號費200元,是,0,0,0,0,2025/11/14,25.026638011926,121.563637778891
臺北市,新光醫療財團法人新光吳火獅紀念醫院,臺北市士林區文昌路95號,02-28332211,掛號費200元,否,0,0,0,0,尚未更新,25.096241000619,121.52028900642
臺北市,臺北市立關渡醫院─委託臺北榮民總醫院經營,臺北市北投區知行路225巷12號,02-28587140,掛號費150元,否,0,0,0,0,尚未更新,25.120187595077,121.466357829732
臺北市,振興醫療財團法人振興醫院,臺北市北投區振興街45號,02-28264400,掛號費230元,否,0,0,0,0,尚未更新,25.117542601711,121.522400491649
臺北市,臺北榮民總醫院,臺北市北投區石牌路二段201號,02-28712121,無,否,0,0,0,0,2025/11/14,25.119174600169,121.520530740507
臺北市,三軍總醫院北投分院附設民眾診療服務處,臺北市北投區新民路60號,02-28959808轉603156,無,是,0,0,0,0,2025/11/14,25.139973789984,121.509680283028
臺北市,博仁綜合醫院,臺北市松山區光復北路66號,02-25702211,掛號費200元,否,0,0,0,0,2025/11/24,25.049903492932,121.557695093359
臺北市,西園醫療社團法人西園醫院,臺北市萬華區西園路二段270號,02-23076968轉1517,無,否,0,0,0,0,2025/11/14,25.027703980462,121.494434020247
臺北市,捷思身心醫學診所,臺北市大安區復興南路2段236號12樓之3,02-23221739,無,是,0,0,0,0,2025/11/14,25.025107015402,121.54309700315
臺北市,黃雅芬兒童心智診所,臺北市中山區南京西路5-1號12樓之1,0910-222280  (LINE官方帳號：@childpsy),無,是,0,0,0,0,2025/11/23,25.052611979215,121.521370020472
臺北市,振芝心身醫學診所,臺北市中山區復興北路282號2樓,02-25069169、LINE ID:  @096jkbbo,掛號費300元,是,0,0,0,0,2025/11/14,25.058820119621,121.543910885949
臺北市,双悅診所,臺北市松山區南京東路五段163-1號,02-27609122,掛號費200元,否,0,0,0,0,2025/11/26,25.051655981248,121.56257998271
臺北市,李政洋身心診所,臺北市松山區三民路84號.健康路345號及民生東路5段192號2樓之3,02-27620086、02-27473339,掛號費600元,是,0,0,0,0,2025/11/24,25.058220981182,121.564261979221
臺北市,自體心理診所,臺北市大安區延吉街153-9號3樓,02-27754121,掛號費200元,否,0,0,0,0,2025/11/28,25.040043985955,121.555027971768
臺北市,宇寧身心診所,臺北市大安區復興南路二段6號3樓,02-27080706,掛號費400元,否,0,0,0,0,2025/11/14,25.030880009304,121.543783983935
臺北市,萬華身心精神科診所,臺北市萬華區和平西路三段142號1樓,02-23088878,無,否,0,0,0,0,2025/11/21,25.035159012785,121.498887995956
臺北市,伯特利身心診所,臺北市信義區光復南路421號2樓,02-27200938,掛號費600元,是,0,0,0,0,2025/11/17,25.036236003524,121.557726022581
臺北市,松德精神科診所,臺北市信義區松德路108號,02-87894477,無,否,0,0,0,0,2025/11/13,25.037703004218,121.574939015124
臺北市,天晴診所,臺北市士林區中山北路六段292號,02-28355329、02-28355396,掛號費300元,否,0,0,0,0,2025/11/13,25.110401010658,121.525675971771
臺北市,天母康健身心診所,臺北市士林區福華路157巷3號1樓,02-28378787,掛號費250元,否,0,0,0,0,2025/11/27,25.103634006858,121.521943007373
臺北市,自由想心理診所,臺北市士林區福華路122號2樓,02-28314837,無,否,0,0,0,0,2025/11/27,25.10258199419,121.522952020877
臺北市,石牌鄭身心醫學診所,臺北市北投區石牌路一段69號,02-28227660,掛號費：健保250元；自費850元,是,0,0,0,0,2025/11/21,25.113578003418,121.511015017289
臺北市,夏一新身心精神科診所,臺北市內湖區成功路三段143號4樓,02-87928214,掛號費300元,否,0,0,0,0,2025/11/26,25.07959299026,121.590029961239
臺北市,誠心身心醫學診所,臺北市文山區羅斯福路六段138號1樓,02-86631380,掛號費200元,否,0,0,0,0,2025/11/28,24.996547691988,121.540845121043
臺北市,心築身心診所,臺北市士林區劍潭路28、30號1樓,02-28856572,掛號費200元,否,0,0,0,0,2025/11/11,25.083751389127,121.522663371806
臺北市,士林身心醫學診所,臺北市士林區文林路410號,02-28812205,無,否,0,0,0,0,2025/11/24,25.094060993332,121.525003994594
臺北市,得心身醫學台北總診所,臺北市中山區復興北路60號3樓之2,02-27510089,掛號費300元,否,0,0,0,0,2025/11/25,25.050303980266,121.543762023348
臺北市,伯特利敦南身心診所,臺北市大安區和平東路三段1巷51號2樓,02-27010622,掛號費600元,否,0,0,0,0,2025/11/24,25.02660301748,121.546863998075
臺北市,抱抱心身醫學診所,臺北市內湖區文德路70、72號,02-87974422,掛號費600元,否,0,0,0,0,2025/12/01,25.078212993722,121.581415041155
臺北市,萬華維沐身心診所,臺北市萬華區西藏路113號1樓,02-23035690,掛號費350元(初診收，之後不用再掛號),否,0,0,0,0,尚未更新,25.029644013862,121.503095040798
臺北市,士林抱抱心身醫學診所,臺北市士林區中山北路五段476號7樓,02-28835477,掛號費600元,否,0,0,0,0,2025/12/01,25.092518387871,121.528504361179
臺北市,怡心診所,臺北市大安區大安路一段169巷7號,02-27070112,掛號費200元,否,0,0,0,0,2025/11/24,25.036898006237,121.546542887365
臺北市,暖心全人諮商中心心理諮商所,臺北市中正區羅斯福路二段198號6樓之5,02-23661099,無,是,0,0,0,0,2025/11/17,25.024807991006,121.523847040499
臺北市,昕心理諮商所,臺北市中正區羅斯福路二段56號7樓,0905-866222,無,否,0,0,0,0,2025/11/14,25.027737005161,121.521663973816
臺北市,暖心泉恩心理諮商所,臺北市中正區南昌路二段192號8樓之2,02-23651099,無,否,0,0,0,0,2025/11/17,25.024232615262,121.523840083519
臺北市,好窩心理諮商所,臺北市中正區和平西路一段17號3樓,02-23568846,無,是,0,0,0,0,2025/11/19,25.027033009113,121.521195006334
臺北市,沐昂心理諮商所,臺北市中山區松江路297巷4號2樓,02-23708442,無,否,0,0,0,0,2025/11/17,25.060962995077,121.533959974318
臺北市,點晴心理諮商所,臺北市中正區寧波西街87號7樓之2,0976-710756,無,是,0,0,0,0,2025/11/14,25.03000690836,121.515846597737
臺北市,璞願心理諮商所,臺北市中正區忠孝西路一段41號10樓之17,02-23897535、0958-994073,無,否,0,0,0,0,2025/11/24,25.046250994804,121.518320013545
臺北市,擁抱心理博愛館心理諮商所,臺北市中正區博愛路76號10樓之2,02-23715808,無,是,0,0,0,0,2025/11/27,25.044675993288,121.511329003382
臺北市,蘊寬心理諮商所,臺北市中山區松江路206號9樓之1,0919-915355,無,是,0,0,0,0,2025/11/14,25.057535886326,121.532907207279
臺北市,舒心心理諮商所,臺北市中山區民生東路一段42號11樓之2,02-25113206,無,否,0,0,0,0,2025/11/17,25.057928788037,121.524437126482
臺北市,向日葵心理諮商所,臺北市中山區中山北路三段30號3樓之2,02-25921411,無,否,0,0,0,0,2025/11/26,25.065367014643,121.522010984608
臺北市,點亮心燈諮商中心心理諮商所,臺北市中山區松江路289之910號9樓,02-27849528、0968-138838,無,是,0,0,0,0,2025/11/24,25.060431708144,121.533382461189
臺北市,天光心理諮商所,臺北市中山區天祥路22號2樓,02-25117403、0972-882137,無,否,0,0,0,0,2025/11/21,25.061151001165,121.52095897194
臺北市,以賽亞心理諮商所,臺北市中山區吉林路231號3樓,0933-569611,無,是,0,0,0,0,2025/11/25,25.060923013399,121.530377967996
臺北市,綻芯心理諮商所,臺北市中山區復興北路280巷2號3樓,02-25016199,無,是,0,0,0,0,2025/11/27,25.058771878399,121.543169440194
臺北市,一二心理諮商所,臺北市中山區南京東路二段176號11樓,0932-151618 ，Line ID@fawntaiwan,無,是,0,0,0,0,2025/11/20,25.051660004562,121.534973011136
臺北市,愛牽手心理諮商所,臺北市松山區八德路四段666號6樓之1,0909-046181,無,否,0,0,0,0,2025/12/01,25.049865019997,121.576085994754
臺北市,象家園心理諮商所,臺北市松山區民生東路五段69巷25號1樓,02-27650285,無,是,0,0,0,0,2025/11/12,25.059866013499,121.558055012281
臺北市,格瑞思心理諮商所,臺北市大安區信義路四段265巷21弄26號,02-2325-4648,無,是,0,0,0,0,2025/11/13,25.033598009047,121.555830958092
臺北市,拉第石心理諮商所,臺北市大安區新生南路一段103巷9-1號1樓,02-27527588轉16(星期日、一休息),無,是,0,0,0,0,尚未更新,25.040789011419,121.534020994573
臺北市,立翎心理諮商所,臺北市大安區忠孝東路四段183號3樓之6,02-2779-0757,無,否,0,0,0,0,2025/11/19,25.041689311639,121.550901812292
臺北市,綻芯安和心理諮商所,臺北市大安區信義路四段187號7樓,02-27010030,無,是,0,0,0,0,2025/11/14,25.033614982401,121.550970962993
臺北市,歸心心理諮商所,臺北市大安區復興南路二段178號3樓,02-27039156,無,否,0,0,0,0,2025/11/14,25.027439992422,121.543241004247
臺北市,同伴心理諮商所,臺北市大安區信義路三段190號10樓,02-27555429,無,否,0,0,0,0,2025/11/14,25.033178997707,121.542871027041
臺北市,格桑美度心理諮商所,臺北市大安區東豐街7號14樓,02-27095598,無,是,0,0,0,0,2025/11/14,25.036184999643,121.544150021646
臺北市,初和心理諮商所,臺北市大安區信義路四段155號8樓,02-27013392,無,是,0,0,0,0,2025/11/28,25.033420019333,121.550029004714
臺北市,心寓心理諮商所,臺北市大安區羅斯福路三段61號2樓,0910-080536,無,是,0,0,0,0,2025/11/12,25.023044019483,121.525846962596
臺北市,國立臺北教育大學心理諮商暨健康促進研究中心芳蘭心理諮商所,臺北市大安區和平東路二段134-18號,02-27321104轉86001,無,是,0,0,0,0,2025/11/24,25.024518019065,121.545601012905
臺北市,毛蟲藝術心理諮商所,臺北市大安區信義路三段202號6樓之1,02-27551338,無,是,0,0,0,0,2025/11/14,25.033181302731,121.543324320364
臺北市,愛心理諮商所,臺北市大安區和平東路二段66號6樓之1,02-29224977,無,是,0,0,0,0,2025/11/17,25.025237982639,121.538960031019
臺北市,中崙諮商中心心理諮商所,臺北市大安區忠孝東路三段54號4樓之1,02-27319731,無,是,0,0,0,0,2025/11/14,25.041725982466,121.535491012752
臺北市,啟宗心理諮商所,臺北市大安區東豐街7號5樓之2,02-23254066,無,是,0,0,0,0,2025/11/20,25.036094014084,121.547998991584
臺北市,國立臺灣師範大學社區諮商中心心田心理諮商所,臺北市大安區青田街5巷16號,02-77495720,無,是,0,0,0,0,2025/11/18,25.028530980939,121.532790028273
臺北市,哈米思心理諮商所,臺北市萬華區柳州街6號4樓,02-23820667,無,否,0,0,0,0,2025/11/20,25.038050015009,121.505125975937
臺北市,我的心理諮商所,臺北市士林區中山北路七段141巷5號4樓,0970-608189,無,是,0,0,0,0,2025/11/24,25.122995993645,121.531079030377
臺北市,潛意心理諮商所,臺北市士林區中正路213巷44號2樓,02-28838570,無,否,0,0,0,0,2025/11/27,25.093994985844,121.526767966117
臺北市,詠安心理諮商所,臺北市內湖區港華街57號,02-26276655、0932-320628,無,是,0,0,0,0,2025/11/14,25.083029989657,121.575261969853
臺北市,擁抱心理諮商所,臺北市內湖區成功路四段32號4樓,02-87920568,無,是,0,0,0,0,2025/11/14,25.081711013374,121.591655966636
臺北市,蛹之生心理諮商所,臺北市南港區昆陽街85號,0968-070-620,無,否,0,0,0,0,2025/11/14,25.051885980671,121.59363803528
臺北市,島語心理諮商所,臺北市文山區羅斯福路六段10號4樓之2,02-29302022,無,否,0,0,0,0,2025/11/14,24.997776311356,121.540455027269
臺北市,利伯他茲心理諮商所,臺北市文山區木柵路二段62號2樓,02-29361183,無,是,0,0,0,0,2025/11/18,24.988578010811,121.559282961096
臺北市,依懷心理諮商所,臺北市文山區羅斯福路六段297號6樓,0909-416020,無,是,0,0,0,0,2025/11/14,24.994240992234,121.541351974728
臺北市,冬青心理治療所,臺北市中正區中山北路一段2號6樓之6,02-23882552,無,是,0,0,0,0,2025/11/27,25.046081009808,121.519486020095
臺北市,宇聯心理治療所,臺北市大同區承德路二段75巷5號1樓,02-25565255,無,是,0,0,0,0,2025/11/27,25.05584399917,121.518599969111
臺北市,賦能心理治療所,臺北市松山區民生東路五段202之3號1樓,02-27680668,無,是,0,0,0,0,2025/11/14,25.058419003644,121.564395000024
臺北市,聊聊心理治療所,臺北市松山區八德路三段106巷67號1樓,02-25798519、line id:@bu.com.tw,無,是,0,0,0,0,2025/11/14,25.044695020208,121.554460014009
臺北市,福樂心理治療所,臺北市大安區信義路四段58號12樓之3,0919-517774,無,是,0,0,0,0,2025/11/14,25.032979005497,121.545377970461
臺北市,力人心理治療所,臺北市大安區復興南路二段139號10樓,02-27081412,無,是,0,0,0,0,2025/11/24,25.028695014784,121.543768980328
臺北市,童伴心理治療所,臺北市大安區信義路三段190號6樓,02-27555429,無,是,0,0,0,0,2025/11/14,25.033178997707,121.542871027041
臺北市,展立心理治療所,臺北市士林區中山北路五段527號3樓,02-28830823,無,是,0,0,0,0,2025/11/18,25.094072979453,121.527841017362
臺北市,沐昕天母心理治療所,臺北市士林區德行東路190巷31弄6號1樓,0909-270237,無,是,0,0,0,0,2025/11/26,25.107407791124,121.532103885679
臺北市,天母愛舒眠心理治療所,臺北市北投區石牌路一段71巷3弄3號1樓,02-28235600,無,是,0,0,0,0,2025/11/17,25.113760476189,121.510998348958
臺北市,拾月拾日心理治療所,臺北市文山區羅斯福路六段391號2樓,0919-591010,無,是,0,0,0,0,2025/11/14,24.992299994916,121.540822992819
臺北市,螺旋梯心理諮商所,臺北市內湖區安康路261巷7號1樓,02-26309650,無,否,0,0,0,0,2025/11/25,25.066492997607,121.61399097257
臺北市,日好心理治療所,臺北市大安區敦化南路二段59號7樓之1,0979-659938,無,是,0,0,0,0,2025/11/25,25.031196300421,121.549194334796
臺北市,臺北市立萬芳醫院－委託臺北醫學大學辦理,臺北市文山區興隆路三段111號5樓,02-29307930轉53956,無,否,0,0,0,0,尚未更新,24.999679003376,121.557368031497
臺北市,2042心理諮商所,臺北市中山區復興北路204號2樓,0907-620489,無,否,0,0,0,0,2025/11/12,25.055723006397,121.543687005315
臺北市,人生設計心理諮商所,臺北市大同區南京西路41號8樓之2,0983-580856,無,是,0,0,0,0,2025/11/27,25.053235006078,121.509366967487
臺北市,辰光心理治療所,臺北市北投區立農路2段202巷2弄1號1樓;地下1樓,0910-557233,無,否,0,0,0,0,2025/11/21,25.121476,121.505448
臺北市,共渡心理諮商所,臺北市信義區吳興街156巷33弄22號1樓,0976-070618,無,否,0,0,0,0,2025/11/10,25.027949989321,121.559646987151
臺北市,財團法人加惠文教基金會附設心理諮商所,臺北市松山區復興北路181號7樓之5,02-25582771,無,是,0,0,0,0,2025/11/14,25.054746514677,121.544321766842
臺北市,臺北市立聯合醫院林森中醫昆明院區,臺北市萬華區昆明街100號,02-23703739轉1205,無,否,0,0,0,0,2025/11/13,25.044284013586,121.504990021468
臺北市,臺北市立聯合醫院中興院區,臺北市大同區鄭州路145號2樓,02-25523234轉2101,掛號費50元,否,0,0,0,0,尚未更新,25.050691014645,121.508888025539
臺北市,覓汨心理治療所,臺北市松山區健康路325巷24弄8號,02-27587798,無,是,0,0,0,0,2025/11/24,25.056428008273,121.568073984966
臺北市,臺北市立聯合醫院陽明院區,臺北市士林區雨聲街105號,02-28353456,掛號費50元,否,0,0,0,0,尚未更新,25.105194004767,121.531566018952
臺北市,中山抱抱心身醫學診所,臺北市大同區承德路一段105號5樓,02-25590381,掛號費600元,否,0,0,0,0,2025/12/01,25.052841685271,121.517807292527
臺北市,北辰身心醫學診所,臺北市北投區光明路2巷9-3號,02-28925500,掛號費150元,否,0,0,0,0,2025/11/27,25.131600017255,121.499570031417
臺北市,臺北市立聯合醫院忠孝院區,臺北市南港區同德路87號,02-27861288轉1702,掛號費50元,否,0,0,0,0,2025/11/13,25.046511001441,121.586152995744
臺北市,沁芳心理治療所,臺北市中正區漢口街一段85號6樓之9,02-77529902,無,否,0,0,0,0,2025/11/27,25.045237999896,121.511050975654
臺北市,理馨西門舘心理諮商所,臺北市萬華區漢口街二段51號2樓,0968-989195,無,否,0,0,0,0,2025/11/27,25.045867983739,121.506388039098
臺北市,輕輕說心理諮商所,臺北市大安區信義路四段263號11樓之5,無，掛號使用LINE: https://lin.ee/LtdIoAY，ID: @794pxozg,無,否,0,0,0,0,2025/11/20,25.033376014341,121.554035973528
臺北市,進安身心診所,臺北市中山區北安路593號,02-25330726,掛號費200元,否,0,0,0,0,2025/11/20,25.08204201473,121.548622018447
臺北市,荳點心理諮商所,臺北市信義區基隆路一段149號12樓之2,0965-711589,無,是,0,0,0,0,尚未更新,25.042501979062,121.565585984646
臺北市,北極星心理治療所,臺北市大同區承德路三段8巷21號1樓,02-25980305、0988-676135、0972-795502,無,否,0,0,0,0,2025/11/14,25.063786983985,121.516823005638
臺北市,諦聽心理諮商所,臺北市中正區重慶南路一段121號7樓之6,02-23120721、0979-511691,無,否,0,0,0,0,2025/11/30,25.04218698714,121.513329009299
臺北市,開心心理諮商所,臺北市中正區杭州南路一段131巷35-1號1樓,0971-252866,無,是,0,0,0,0,2025/11/14,25.036125991045,121.527257972177
臺北市,大心診所,臺北市大安區忠孝東路四段153號6樓,02-27718821,掛號費200元,是,0,0,0,0,尚未更新,25.041752008275,121.549917022488
臺北市,大心古亭診所,臺北市中正區南昌路二段206號5樓之1,02-23676883,掛號費200元,是,0,0,0,0,尚未更新,25.024036981642,121.524321959132
臺北市,療寓心理諮商所,臺北市大同區庫倫街37號3樓,0976-196737,無,否,3,3,3,0,2025/11/26,25.072056988753,121.518002004138
臺北市,翎馨心理治療所,臺北市士林區中正路236巷32號,02-28343136、 0963-616232,無,否,0,0,0,0,2025/11/18,25.097329013561,121.525000977109
臺北市,山陵路聆心理治療所,臺北市中山區民生東路一段42號7樓,0972-886171,無,否,0,0,0,0,2025/11/27,25.057928788037,121.524437126482
臺北市,用心說心理治療所,臺北市士林區福國路56巷17號1樓,0987-503531,無,是,0,0,0,0,2025/11/25,25.102744980297,121.523199035564
臺北市,捷思心理治療所,臺北市中正區忠孝東路二段100號5樓之7,02-23210031、0919-003316,無,是,0,0,0,0,2025/11/18,25.042762991527,121.530471007121
臺北市,華昕藝心心理諮商所,臺北市南港區研究院路一段99號2樓之103,02-66057103,無,否,0,0,0,0,2025/11/20,25.052282989515,121.616475117214
臺北市,晴風心理治療所,臺北市中山區大直街33巷5號1樓,02-85091190,無,否,0,0,0,0,尚未更新,25.082249005829,121.546704993372
臺北市,晴韻心理諮商所,臺北市大安區忠孝東路四段59號10樓之1,0919-010865,無,否,0,0,0,0,2025/11/14,25.041792115682,121.545806369533
臺北市,元思心理諮商所,臺北市中山區中山北路二段99號3樓之1,02-25677795,無,否,0,0,0,0,2025/11/28,25.059617992984,121.523122005874
臺北市,蘅芯心理諮商所,臺北市中正區重慶南路1段99號11樓1107室,0917-579873(建議簡訊聯繫),無,否,0,0,0,0,2025/11/14,25.043040013426,121.513371002634
臺北市,新識康心身健康中心心理治療所,臺北市大安區敦化南路一段192號7樓之3,02-27218900,無,否,0,0,0,0,2025/11/20,25.042533997932,121.548433006531
臺北市,過好生活心理諮商所,臺北市中正區重慶南路一段10號9樓之6,0913-808793,無,否,0,0,0,0,2025/11/14,25.042736001798,121.513364967663
臺北市,張老師基金會台北心理諮商所,臺北市中山區大直街20巷16號,02-25326180轉136,無,否,0,0,0,0,2025/11/14,25.081206003707,121.545347963248
臺北市,擁抱心藝心理諮商所,臺北市內湖區內湖路二段466號2樓,02-87910019,無,否,0,0,0,0,2025/11/14,25.083878405897,121.59279657602
臺北市,擁抱甯心理諮商所,臺北市松山區復興北路15號5樓之10,02-27751298,無,否,0,0,0,0,2025/11/14,25.048527980712,121.544235014144
臺北市,艾希爾心理治療所,臺北市士林區通河街90號1樓,02-28856572,無,否,0,0,0,0,2025/11/11,25.081099008713,121.52003796842
臺北市,方舟身心診所,臺北市文山區興隆路三段84號2樓,02-29308080,掛號費200元,否,0,0,0,0,尚未更新,24.999670998659,121.556630004922
臺北市,蛹之生明德心理諮商所,臺北市北投區明德路118巷23號1樓,0968-070620,無,否,0,0,0,0,2025/11/25,25.109638006012,121.521125017442
臺北市,振芝映煦心身醫學診所,臺北市大安區信義路四段341號8樓之1,02-27030082,掛號費300元,否,0,0,0,0,2025/11/14,25.033322998804,121.556680966894
臺北市,季遇心理諮商所,臺北市萬華區桂林路26號2樓之2,02-23022317,無,否,0,0,0,0,2025/11/12,25.037605019769,121.505395035029
臺北市,安然心理諮商所,臺北市中正區羅斯福路四段68號8樓之10,0917-002762,無,否,0,0,0,0,2025/11/25,25.014515013906,121.534289969846
臺北市,暮思心理治療所,臺北市大安區和平東路一段77號4樓,02-66040477,無,否,0,0,0,0,2025/11/25,25.027059998842,121.525149001519
臺北市,森呼吸心理諮商所,臺北市大安區信義路二段208號7樓之1,0926-688759,無,否,0,0,0,0,2025/11/20,25.033436992687,121.530758003486
臺中市,佑芯身心診所,台中市北屯區興安路二段7號,04-22470375,無,否,0,0,0,0,2025/11/28,24.174869597971,120.694470713238
臺中市,好時光心理治療所,台中市大里區國光路二段337號,0910957527 或加入LINEID: @xfb1049s,無,否,0,0,0,0,2025/11/26,24.107859006202,120.680028023515
臺中市,財團法人台灣省私立台中仁愛之家附設靜和醫院,台中市西區南屯路一段158號,04-23711129#1124,無,否,0,0,0,0,2025/11/26,24.133725014577,120.659414995769
臺中市,話嶼心理諮商所,台中市北區雙十路二段101號5樓之五,04-22335920,無,是,0,0,0,0,2025/11/24,24.155807012765,120.68979939478
臺中市,明朗身心診所,台中市大里區新仁路二段96號,04-24836800,掛號費250元,是,0,0,0,0,2025/11/27,24.112190515518,120.691808752349
臺中市,清濱醫院,台中市清水區港埠路四段195號,04-26283995#112,無,否,0,0,0,0,2025/11/13,24.283123009039,120.548884012061
臺中市,向陽心理治療所,台中市西屯區大墩十九街151號,0985911807 或加入Line ID: @585xemue,無,是,0,0,0,0,2025/11/18,24.15787030205,120.65251367197
臺中市,王家駿身心診所,台中市北屯區東山路一段332-5號,0932138170,無,否,0,0,0,0,2025/11/13,24.175962011412,120.723840985784
臺中市,心煦心理治療所,台中市西屯區福雅路128巷58號,0970002995,無,是,0,0,0,0,2025/11/17,24.184757687237,120.620739218137
臺中市,寶貝心理諮商所,台中市梧棲區民和路一段200號二樓,0966299469 或加入Line ID : @330mnqrw,無,是,8,8,8,0,2025/11/25,24.249107958094,120.54930019316
臺中市,怡然心理治療所,台中市西區三民路一段170號4樓之2,0905467481,無,是,0,0,0,0,2025/11/26,24.137647409987,120.674800314323
臺中市,訴心理諮商所,台中市西屯區市政北七路186號13樓之8,0908512345 或加入Line ID：@sulisten,無,是,0,0,0,0,2025/11/13,24.165437609966,120.64128410101
臺中市,葵心理諮商所,台中市西屯區台灣大道四段1230巷20之6號,0905677538 或加入LINE ID:@sunflowercc,無,是,0,0,0,0,2025/11/13,24.185529541663,120.611412705136
臺中市,如穎心理成長中心心理治療所,台中市中區柳川東路三段5號5樓,04-22282220,無,是,8,0,0,0,2025/11/10,24.141666252469,120.676671718258
臺中市,心嶼心理治療所,台中市北屯區軍福十三路327號,0903645359,無,是,0,0,0,0,2025/11/28,24.17242501591,120.721793035381
臺中市,昕晴空間心理諮商所,台中市沙鹿區光華路499號,04-26628880,無,是,0,0,0,0,2025/11/13,24.243955004143,120.570437992257
臺中市,靜馨心理治療所,台中市南屯區黎明路一段1144號,04-23823966,無,是,0,0,0,0,2025/11/13,24.141678015767,120.638225963636
臺中市,廖慈凰身心診所,臺中市西區博館路115號1樓,04-23255018,掛號費400元,是,0,0,0,0,2025/11/13,24.156376604995,120.665290458438
臺中市,明德醫院,台中市梧棲區仁美街33巷50號,04-2657-9595#568，0919817961,掛號費150元,否,0,0,0,0,2025/11/13,24.253733290478,120.535754682746
臺中市,心風景心理治療所,台中市西屯區弘孝路207號,04-24520809,無,是,0,0,0,0,2025/11/13,24.170659200368,120.648623379249
臺中市,芙樂奇心理成長心理諮商所,台中市北屯區大連路二段213號,048246028,無,是,3,0,0,0,2025/11/29,24.175746009767,120.687805004738
臺中市,心門心理諮商所,台中市沙鹿區正德路72巷50號,04-23120896 或加入LINEID: @460xawyr ,無,是,0,0,0,0,2025/11/17,24.205324991702,120.568452989947
臺中市,相癒心理諮商所,臺中市北區太原八街110號,04-22992811 或加入LINEID: @669mzvgc,無,是,0,0,0,0,2025/11/13,24.16599299487,120.672555808291
臺中市,陽晴心理治療所,台中市西區五權五街101號,0908432988,無,是,0,0,0,0,2025/11/28,24.136393603001,120.660666833008
臺中市,擁恆心理諮商所,台中市大甲區水源路215號1、2樓,0936185235,無,是,0,0,0,0,2025/11/20,24.341620814214,120.62768949225
臺中市,晴朗心理諮商所,臺中市南屯區黎明東街429號,0908038706,無,是,0,0,0,0,2025/11/18,24.150335809286,120.636366773693
臺中市,桐心理治療所,臺中市南屯區豐富路160巷9號,0953-971130,無,是,0,0,0,0,2025/11/17,24.130028888644,120.648719603498
臺中市,光田醫療社團法人光田綜合醫院,台中市沙鹿區沙田路117號,0978307039,掛號費及部分負擔：白天360元；晚上及假日390元,否,0,0,0,0,2025/11/13,24.235321518143,120.558832241482
臺中市,寬和心理諮商所,台中市南屯區永春東一路573號,04-23829585,無,是,0,0,0,0,2025/11/13,24.13055468543,120.641178237573
臺中市,麥子心理治療所,臺中市南屯區河南路四段700號1樓,0987-186208 或加入LINEID: ＠wheat.psy,無,否,0,0,0,0,2025/11/24,24.14474059555,120.639011096507
臺中市,勵心心理諮商所,台中市南區德祥街15巷16號,0928660285,無,是,0,0,0,0,2025/11/17,24.120680007208,120.654307902164
臺中市,宗益身心醫學診所,台中市烏日區公園路75號,(04)2338-0503,掛號費150元,否,0,0,0,0,2025/11/24,24.101742815274,120.626623565623
臺中市,引光築詩心理治療所,台中市西區忠明南路499號11樓,04-37005384,無,否,0,0,0,0,2025/11/13,24.135623306099,120.65768698261
臺中市,財團法人台中市私立慈光社會福利慈善事業基金會附設慈光社區心理諮商所,臺中市東區東英五街88號2樓,04-22153505,無,是,0,0,0,0,2025/11/13,24.136188204464,120.704472503022
臺中市,拾月拾日心理治療所,台中市北區文武街6號,0919591010 或 LINEID:@1010psy,無,是,0,0,0,0,2025/11/13,24.15386999685,120.676897969412
臺中市,拾月拾日豐原心理治療所,台中市豐原區葫蘆墩三街199號,0919591010 或 LINEID:@1010psy,無,是,0,0,0,0,2025/11/13,24.262122611637,120.715268310492
臺中市,一心心理諮商所,台中市北區華中街25號,04-22075313,無,是,0,0,0,0,2025/11/24,24.15683501128,120.671944013178
臺中市,蛹之生成長心理諮商所,台中市南屯區五權西路二段478-1號,0968-070-620,無,是,0,0,0,0,2025/11/13,24.140680988385,120.64346297674
臺中市,德仁診所,台中市南區南平路314號,04-22652718,掛號費200元,否,0,0,0,0,2025/11/24,24.125381919614,120.668444317145
臺中市,晨心身心診所,台中市太平區中興路158號,04-22780799 或加入LINEID: @536gbokk,掛號費150元,否,0,0,0,0,2025/11/28,24.12611810217,120.713772224595
臺中市,耕心心理諮商所,台中市南屯區大墩南路412號,0912622798 或加入LINEID:@156frpfu,無,是,0,0,0,0,2025/11/28,24.133954008172,120.650202613627
臺中市,臺中榮民總醫院,臺中市西屯區臺灣大道4段1650號,04-23592525#3402,需先掛號精神科收掛號費570元，後續不需自付費用,否,0,0,0,0,2025/12/01,24.183498180557,120.603714818416
臺中市,日音心理治療所,臺中市西區福人街96號,0906693905,無,否,2,0,0,0,2025/11/28,24.143038985386,120.659033032441
臺中市,竹見好轉心理諮商所,台中市太平區成功東路 55 巷 2 號,04-22788855 或加入LINEID: @getbetter,無,是,0,0,0,0,2025/11/13,24.127560619703,120.720002171169
臺中市,人文傳習書院心理治療所,台中市西區中美街41巷3號1樓,04-23134566 04-23751966,無,否,0,0,0,0,2025/11/13,24.142187300204,120.659870384568
臺中市,人文傳習書院博雅心理治療所,台中市西區華美西街一段160號1樓,04-23134566 04-23751966,無,否,0,0,0,0,2025/11/13,24.158383609801,120.661641061614
臺中市,蛹之生心理諮商所,台中市南屯區文心路一段46-1號,0968-070-620,無,是,0,0,0,0,2025/11/13,24.138193993894,120.646805009175
臺中市,中國醫藥大學附設醫院精神醫學部,台中市北區育德路2號,04-22052121#11853、11854,掛號費150元,是,0,0,0,0,2025/11/10,24.157741011194,120.680813994576
臺中市,心喜心理治療所,台中市太平區市民大道一段251號,04-22734567 或加入LINEID: ＠450hnjfs,無,是,2,1,1,0,2025/11/26,24.142776296541,120.713058840815
臺中市,堅美身心診所,臺中市西屯區安和路182號1-2樓,0960782238,掛號費350元,否,0,0,0,0,2025/11/13,24.183353428383,120.625501684759
臺中市,自在心理治療所,台中市沙鹿區北勢東路748號1樓,0958265826 或加入LINEID:@freeandeasy,無,是,0,0,0,0,2025/11/24,24.229925919431,120.570601523188
臺中市,玩心聊療心理諮商所,臺中市西屯區台灣大道四段936號3樓之6,0972330533 或加入LINEID:play330533,無,否,0,0,0,0,2025/11/28,24.18227299777,120.617811000262
臺中市,佳樂身心診所,台中市北屯區四平路369號,0424211693,掛號費200元,否,0,0,0,0,2025/11/13,24.189248501411,120.680164480899
臺中市,哲石情感心理諮商所,台中市北屯區太原路三段150巷8弄15號,04-22333385 或加入LINE ID: Phistonemind,無,是,0,0,0,0,2025/11/13,24.164048980067,120.689416006529
臺中市,日希心理成長中心心理治療所,臺中市北屯區天津路四段294號,04-22334789 或加入LINEID:@797kxxjz,無,是,0,0,0,0,2025/11/10,24.169942002823,120.693124998684
臺中市,好晴天身心診所,臺中市潭子區中山路二段374號,04-25339907 或加入LINEID:@sogoodday,掛號費400元,否,0,0,0,0,2025/11/13,24.213798886265,120.705584865392
臺中市,中科好晴天身心診所,臺中市大雅區中清路四段15號,04-25602337 或加入LINEID:@sogoodday2,掛號費400元,否,0,0,0,0,2025/11/13,24.225793012523,120.644940035718
臺中市,文心好晴天身心診所,臺中市南屯區文心南路30號,04-24735925 或加入LINEID:@sogoodday3,掛號費400元,否,0,0,0,0,2025/11/13,24.136637390655,120.646762764383
臺中市,禾悅身心醫學診所,臺中市大里區新興路101號1樓,04-24061020,掛號費200元,否,0,0,0,0,2025/11/13,24.100702285813,120.676624803188
臺中市,時光身心診所,臺中市大雅區雅環路一段288號1樓,04-25601413,掛號費200元,否,0,0,0,0,2025/11/26,24.222866596758,120.653706165335
臺中市,清海醫院,臺中市石岡區石岡街下坑巷41-2號,04-25721694#132,初診掛號費150元、複診掛號費100元,否,0,0,0,0,2025/11/13,24.250839019311,120.774342036235
臺中市,與橋心理諮商所,臺中市大里區益民路一段78巷40號,0960908585,無,是,0,0,0,0,2025/11/13,24.109859808399,120.692589981804
臺南市,這會心理諮商所,臺南市關廟區南雄路二段30號,0918071281,無,是,0,0,0,0,尚未更新,22.960623601899,120.328159583885
臺南市,慈恩心理治療所,臺南市永康區中華路23巷1號,06-3126267,自付場地費400元,是,0,0,0,0,2025/11/11,22.998786616604,120.234277909731
臺南市,溫柔拾光心理諮商所,臺南市東區東光路二段122號,06-2099980,無,否,0,0,0,0,2025/12/01,22.997900984715,120.23181597713
臺南市,看見光亮心理諮商所,臺南市北區海安路三段985巷27弄13號,06-3584327,無,是,0,0,0,0,2025/12/01,23.018771001612,120.199190005753
臺南市,元品心理諮商所,臺南市安平區安平路428號2樓,06-2229592,無,是,0,0,0,0,2025/11/11,22.998246319126,120.173910185776
臺南市,奇美醫療財團法人奇美醫院,臺南市永康區中華路901號,06-2228116分機58206,無,否,8,12,12,0,2025/12/01,23.020955996132,120.222100010245
臺南市,自然就好心理諮商所,臺南市東區慶東街214號,06-2752858,無,是,0,0,0,0,2025/11/18,22.991953018583,120.216654120114
臺南市,財團法人台灣省私立台南仁愛之家附設仁馨醫院,臺南市新化區中山路20號,06─5902336＃28,無,是,0,0,0,0,2025/11/11,23.051096481761,120.319738285765
臺南市,心寬診所,臺南市永康區中華路245號,06-3131212,掛號費150元,否,0,0,0,0,2025/11/11,23.005705919585,120.235153734793
臺南市,曙光角落心理諮商所,臺南市東區崇明路155巷4號,0978909965,無,否,0,0,0,0,2025/11/11,22.979111020909,120.219286037711
臺南市,明如身心診所,臺南市佳里區進學路163-1號,06-7225656,初診病人需看診(掛號費200元/部分負擔50元/藥品部分負擔0-200元),否,0,0,0,0,2025/12/01,23.163853992319,120.177379958414
臺南市,悅晴心理諮商所,臺南市安平區怡平路442巷88號2樓,0912874211,自第2次起收取行政處理費200元,否,0,0,0,0,2025/12/01,22.995618005747,120.174004985101
臺南市,樂驛心理諮商所,臺南市東區育樂街166-4號4樓,06-2095055,無,是,0,0,0,0,2025/11/11,22.994980981105,120.21458898681
臺南市,衛生福利部新營醫院,臺南市新營區信義街73號,(06)6351131轉2346,掛號費100元,否,0,0,0,0,2025/11/11,23.308897001347,120.313282879215
臺南市,東寧身心診所,臺南市東區東寧路24-3號,06-2091090,掛號費200,否,0,0,0,0,2025/11/11,22.992130002469,120.219557024641
臺南市,緩緩心理諮商所,臺南市北區開元里北園街124巷10弄64號2樓,0902009832,自付場地費400元,是,0,0,0,0,2025/12/01,23.01413199539,120.224553980038
臺南市,伴行心理治療所,臺南市善化區文昌路42-1號,0975124951,行政費400元,是,0,0,0,0,2025/12/01,23.128733985652,120.289334021643
臺南市,台灣基督長老教會新樓醫療財團法人麻豆新樓醫院,臺南市麻豆區埤頭里麻佳路一段207號,06-5702228,掛號費120元,是,3,3,0,0,2025/11/18,23.183983449597,120.23845795433
臺南市,日安心理治療所,臺南市南區新興里夏林路167號1樓,06-2643939,掛號費200元,是,0,0,0,0,2025/12/01,22.980083782682,120.195375988351
臺南市,蕭文勝診所,臺南市東區東門路二段205號,062755088,掛號費200元,是,0,0,0,0,2025/11/11,22.984789005939,120.224722037196
臺南市,蕭尹瑩身心診所,臺南市北區長榮路四段141號,062002268,掛號費200元,是,0,0,0,0,2025/11/11,23.006011020861,120.221777977525
臺南市,繪日藝術心理諮商所,臺南市安南區怡安路一段98號,（06）3565588,自付場地費400元。如進行藝術治療媒材費200元另計。,是,0,0,0,0,2025/12/01,23.040927179642,120.212777573714
臺南市,看見愛心理諮商所,臺南市安平區永華二街183號1樓,06-2977769,無,是,0,2,0,0,2025/12/01,22.98817198397,120.184269966643
臺南市,林俞仲身心精神科診所,臺南市永康區中山南路31號,06-3036006,行政處理費200元,否,0,0,0,0,2025/12/01,23.011859787168,120.226734867425
臺南市,安大身心精神科診所,台南市安南區海佃路二段450號,06-2568886,行政處理費200元,否,0,0,0,0,2025/12/01,23.039416006319,120.188115416182
臺南市,樂行診所,台南市仁德區中正路二段1116號,06-2705633,首次需先讓醫師評估確認需求才會分派治療，故會有首次看診費用，排入方案治療後，三次治療不額外收取費用看診費用,否,0,0,0,0,2025/11/11,22.969615414259,120.252320794506
臺南市,安平心寬診所,台南市安平區華平路537號,06-2973757,本院所轉介心理諮商需先醫師看診評估，依初診或複診收取掛號費,否,6,6,6,0,2025/11/28,22.99424999533,120.17539101661
臺南市,寬欣心理治療所,臺南市北區育德一街227號,06-2510966,無,是,0,0,0,0,2025/11/11,23.016546989333,120.205519013203
臺南市,芯寬欣心理治療所,臺南市北區北安路一段273號,06-2510560,無,否,0,0,0,0,2025/11/11,23.019240011004,120.206540012828
臺南市,禾心心理諮商所,臺南市北區中華北路二段80巷65號,06-3587725,自付場地費400元,是,3,10,10,0,2025/12/01,23.017479015057,120.197379011753
臺南市,衛生福利部嘉南療養院,臺南市仁德區裕忠路539號,06-2795019#1183,無,是,0,0,0,0,2025/11/11,22.977767680592,120.2414060382
臺南市,深藏心理治療所,臺南市東區崇明路399號2樓,0963689820,行政處理費250元（單次）,是,8,10,12,0,2025/12/01,22.973902003362,120.223841015354
臺南市,白河林眼科診所,臺南市白河區中山路2-53號,066831116,掛號費50元+部份負擔50元,是,0,0,0,0,尚未更新,23.346592180127,120.413362300216
臺南市,明澤欣心診所,臺南市永康區永大路三段411號,062012866,掛號費200元,否,0,0,0,0,2025/11/11,23.036518885305,120.259004859374
臺南市,上善心理治療所,臺南市北區林森路三段77號2樓,06-237-5555,無,是,0,0,0,0,2025/12/01,23.003267582042,120.224440321431
臺南市,春暉診所,臺南市東區崇學路139-2號,06-2690555,行政處理費200元,否,0,0,0,0,2025/11/11,22.979483009772,120.222681965783
臺南市,欣空間心理治療所,臺南市東區裕和路97號,06-3318678,無,否,0,0,0,0,2025/12/01,22.987818016199,120.240566013493
臺南市,元品文華心理諮商所,臺南市安平區建平七街308號,06-2955257,無,否,0,0,0,0,尚未更新,22.989055981389,120.178627101788
臺南市,構好心理諮商所,臺南東區東平路111號2樓之8,0919507907,無,否,0,0,0,0,尚未更新,22.995018993036,120.230505969483
臺南市,樂而康診所,臺南市東區崇德路880號一樓,06-2607799,掛號費200元,否,10,5,12,12,2025/11/30,22.961999890993,120.22745764112
臺南市,快樂心寧身心診所,台南市永康區永大路二段187號,06-273-8666,初診病人需看診(掛號費150元),否,0,0,0,0,2025/12/01,23.007184990219,120.261731995392
臺南市,好心情心理諮商所,臺南市安平區建平七街453巷75號2樓之2,0909334443,場地費200元,是,4,0,0,0,2025/11/10,22.987641347933,120.175229550619
臺南市,欣橋心理治療所,臺南市永康區東橋十街20號,0937-800-681、06-3022820,行政費用400元,是,0,5,5,0,2025/12/01,23.021648089877,120.232006916884
臺南市,沐盼心理諮商所,臺南市新市區中正路137號,0979-732750,場地費：200元,否,0,0,0,0,2025/12/01,23.074806999916,120.291322963448
臺南市,山實心理諮商所,臺南市玉井區中山路416號,0910370032,場地費250元,是,0,0,0,0,2025/11/11,23.124930906633,120.466136187532
臺南市,星語心理治療所,臺南市永康區東橋一路552號,0938057530,無,是,2,0,0,0,2025/12/01,23.024923318543,120.233042584841
臺南市,真心診所,臺南市永康區東橋十街118號2樓,06-3036002,掛號費250元,是,2,0,0,0,2025/11/29,23.022398982673,120.233322959502
臺南市,康舟診所,臺南市南區金華路一段486號2樓,06-2655345,掛號費250元,是,0,0,0,0,尚未更新,22.973240000649,120.190925030127
臺南市,聽見‧覺旅心理諮商所,臺南市安平區郡平路305號1、2樓,0978461808,行政管理費200元,是,0,0,0,0,2025/11/11,22.989458019375,120.164305027651
臺南市,禾覓心理諮商所,臺南市南區三和街9號,0933322398,行政費200元,是,0,0,0,0,2025/11/11,22.980939994092,120.193173978568
臺南市,好家在心理諮商所,臺南市中西區友愛街237號,0909522499,無,是,0,0,0,0,2025/11/11,22.991921712175,120.196814993488
臺南市,和朗心理諮商所,臺南市安平區文平路428號2樓,06-2993800,無,是,0,0,0,0,2025/11/11,22.993081516117,120.178921306589
高雄市,小魚兒心理治療所,高雄市三民區澄清路620號2樓,(07)398-0118,行政處理費500元,是,0,0,0,0,2025/11/10,22.644273979889,120.346577977923
高雄市,小魚兒心理成長空間心理治療所,高雄市三民區澄和路25號,(07)398-0118,行政處理費500元,是,0,0,0,0,2025/11/28,22.644211995715,120.345459999677
高雄市,盼望心理治療所,高雄市左營區至聖路3號,(07)550-6592,行政處理費200元,是,0,0,0,0,2025/11/13,22.65953499482,120.311455959599
高雄市,微風心理治療所,高雄市鼓山區美術東三路23號,0911-901-899,行政處理費400元,是,12,12,1,0,2025/11/23,22.657200006143,120.292940000209
高雄市,繪星心理治療所,高雄市新興區八德一路212號2樓,(07)236-2585,平日白天18:00前:行政處理費400+掛號費100元，夜間18:00後含週六：行政處理費900+掛號費100元 ,是,0,0,0,0,2025/11/25,22.635752015112,120.307624004924
高雄市,宇智心理治療所,高雄市鳳山區文衡路490號2樓,(07)777-5580,無,否,0,0,0,0,2025/11/13,22.641141997949,120.350009026169
高雄市,心之森心理治療所,高雄市三民區民族巷1-7號,(07)380-9380,行政處理費200元,否,0,0,0,0,2025/11/13,22.646911010447,120.315701980291
高雄市,溫島心理治療所,高雄市前鎮區瑞和街6號,(07)963-8515,掛號費100元,否,0,0,0,0,2025/11/13,22.607738018319,120.331931021219
高雄市,路以心理治療所,高雄市鳳山區瑞春街4號1、2樓,0975-375-759,無,否,0,0,0,0,2025/11/13,22.595649008917,120.322749987395
高雄市,禾好心理治療所,高雄市苓雅區正大路119號2樓,0912-208-826,行政處理費600元,是,0,0,0,0,2025/11/19,22.633251819123,120.332524292326
高雄市,美術館禾好心理治療所,高雄市鼓山區美術北一街81號,0912-208-826,行政處理費600元,是,0,0,0,0,2025/11/19,22.662919020589,120.286695985257
高雄市,心托邦心理治療所,高雄市苓雅區中正二路131號,0983-769-055,行政處理費200元,是,0,0,0,0,2025/11/13,22.630209984551,120.315578011943
高雄市,旅行心理治療所,高雄市苓雅區憲政路138號,0972-691-801,行政處理費500元,否,1,1,1,0,2025/11/23,22.635785367745,120.324478581548
高雄市,欣寧心理治療所,高雄市左營區重愛路395號,(07)350-2119,平日下午五點前：掛號費100元+行政處理費300元，平日下午五點後與周六/日整日：掛號費100元+行政處理費500元,否,0,0,0,0,2025/11/23,22.68843998792,120.311954012286
高雄市,澄河心理諮商所,高雄市楠梓區朝明路160巷4號,從網站FB申請預約,無,否,0,0,0,0,2025/11/13,22.724836013617,120.328952009012
高雄市,幸福家庭心理諮商所,高雄市楠梓區大學東路620號,0931-890-895,無,否,0,0,0,0,2025/11/13,22.733729003339,120.290660038726
高雄市,方泊心理諮商所,高雄市三民區建元路56號2樓,(07)395-9000,行政處理費400元,是,0,0,0,0,2025/11/13,22.646710012409,120.317665022014
高雄市,散步後花園心理諮商所,高雄市苓雅區林德街10巷15號4樓,Line ID：@048mljoz,無,是,0,0,0,0,2025/11/13,22.624428985931,120.316414022966
高雄市,華遠心理諮商所,高雄市鼓山區厚德路186號6樓之1,(07)552-7285,無,否,0,0,0,0,2025/11/13,22.647113014314,120.278300000484
高雄市,回甘心理諮商所,高雄市左營區站前北路100號4樓,(07)588-9880,無,是,0,0,0,0,2025/12/01,22.688623006776,120.30573204174
高雄市,敲敲話心理諮商所,高雄市三民區安泰里天津街255巷24號5樓,Line ID：@008josxk,行政處理費400元,是,0,0,0,0,2025/11/13,22.650673982059,120.30056300587
高雄市,繪心庭心理諮商所(可協助偏鄉),高雄市鼓山區華榮路228號7樓,(07)553-0101,無,是,0,0,0,0,2025/11/13,22.664263016854,120.297177974273
高雄市,安康心理諮商所,高雄市新興區新興路34號2樓,(07)726-3880,行政費用400元,否,0,0,0,0,2025/11/11,22.628198998341,120.305047994622
高雄市,綠野仙蹤心理諮商所,高雄市左營區裕誠路188號2樓,(07)550-8216,無,是,0,0,0,0,2025/11/13,22.664501984913,120.3107979802
高雄市,小宅心理諮商所,高雄市前鎮區文橫三路194-3號,0918-061-622,行政處理費400元,是,0,0,0,0,2025/11/10,22.614431219462,120.30714221313
高雄市,藍秀宏心理諮商所,高雄市鼓山區博愛二路343號5樓之2,0988-271-987,無,否,0,0,0,0,2025/11/13,22.663227013621,120.302855037294
高雄市,予愛心理諮商所,高雄市三民區臥龍路54巷32號,0905-923-518,行政處理費200元,是,0,0,0,0,2025/11/11,22.638038011565,120.331026027133
高雄市,好加在心理諮商所,高雄市苓雅區苓雅一路15號三樓,0975-733-510,行政處理費400元,否,0,0,0,0,2025/11/13,22.62248300138,120.315149026138
高雄市,伴心理諮商所,高雄市三民區明仁路58號,(07)345-1358,無,是,0,0,0,0,2025/11/18,22.66220651691,120.314377807227
高雄市,蛻變心理諮商所,高雄市前鎮區廣東三街400巷15之1號,0920-142-596,無,否,0,0,0,0,2025/11/21,22.614543997969,120.321782967226
高雄市,遇見心理諮商所,高雄市左營區重光路82號,(07)345-3569,無,是,0,0,0,0,2025/11/13,22.681220989992,120.302424961842
高雄市,靠港心理諮商所,高雄市小港區維安街48巷29弄2-6號5樓,0972-779-011,無,否,0,0,0,0,2025/11/13,22.565089009034,120.348701030178
高雄市,慢慢心理諮商所,高雄市前鎮區一心二路21號5樓之3,(07)536-1050,無,否,0,0,0,0,2025/11/24,22.610551990853,120.311940014508
高雄市,心靈角落心理諮商所,高雄市左營區自由二路142巷28號,從網站FB申請預約,無,否,3,3,3,0,2025/11/27,22.661588016274,120.309767006109
高雄市,心蘊心理諮商所,高雄市苓雅區成功一路232號13樓之9,Line ID：@mc2020,無,是,0,0,0,0,2025/11/24,22.617721996558,120.296507002924
高雄市,神木心理諮商所,高雄市前鎮區二聖路230號,0901-245-230,無,否,0,0,0,0,2025/11/13,22.612127998198,120.328486981023
高雄市,港灣藝術心理諮商所,高雄市三民區察哈爾二街10巷45號,Line ID：@harborart,行政處理費300元,否,0,0,0,0,2025/11/18,22.648615009453,120.302655967093
高雄市,浪心人心理諮商所,高雄市鳳山區青年路一段262巷39號1樓,0921-311-675,行政處理費200元,是,0,0,0,0,2025/11/13,22.62408801011,120.351751037106
高雄市,欣語心理諮商所,高雄市三民區天津街148號1-2樓,0968-991-520,無,否,0,0,0,0,2025/11/17,22.645956982228,120.3010850308
高雄市,高安診所,高雄市新興區中山一路59號,0905-414-363,無,否,0,0,0,0,2025/11/13,22.629670986268,120.301487026877
高雄市,冬勝診所,高雄市苓雅區中正一路472號,(07)727-8392,行政處理費400元,否,2,3,3,0,2025/11/25,22.630038993727,120.323775010334
高雄市,澄清文鳳診所,高雄市三民區澄清路651號1-2樓,(07)398-6611,掛號費150元,否,2,1,0,0,2025/11/24,22.645013012292,120.34637999737
高雄市,心悅診所,高雄市三民區建工路587號,(07)380-5562,掛號費200元,是,0,0,0,0,2025/11/13,22.648272985894,120.320036010966
高雄市,維佳身心診所,高雄市楠梓區加仁路153號,(07)364-6776,掛號費150元,否,0,0,0,0,2025/11/27,22.728178675329,120.303259970566
高雄市,心欣診所,高雄市楠梓區德民路822號,(07)364-0490,掛號費100元,否,0,0,0,0,2025/11/16,22.721920997241,120.291525973143
高雄市,茂德診所,高雄市三民區自由一路14號,(07)312-2238,無,否,0,0,0,0,2025/11/13,22.641471993477,120.3086320126
高雄市,和成診所,高雄市鳳山區和成路71號,(07)796-1900,掛號費100元,否,0,0,0,0,2025/11/18,22.589993990301,120.33798200094
高雄市,楊明仁診所,高雄市苓雅區憲政路258-1號,(07)223-2223,掛號費230元,否,0,0,0,0,2025/11/26,22.636805997527,120.32080697842
高雄市,文心診所,高雄市三民區大裕路256號,(07)310-8004,掛號費150元,否,0,0,0,0,2025/11/13,22.660271009738,120.328809013743
高雄市,仁武深忻診所,高雄市仁武區仁雄路67-5號,(07)374-6583,行政處理費400元,否,0,0,0,0,2025/11/13,22.678852096516,120.348766325204
高雄市,耕心療癒診所,高雄市左營區曾子路332號,(07)359-2011,無,否,1,0,0,0,2025/11/10,22.680155985374,120.306796040529
高雄市,工協身心診所,高雄市鳳山區勝利路15號1-2樓,(07)702-0000,掛號費150元,否,0,0,0,0,2025/11/23,22.628004999192,120.373656973417
高雄市,大順景福診所,高雄市三民區大順二路720號,(07)383-3799,無,否,0,0,0,0,2025/11/13,22.653613012588,120.319239981621
高雄市,寬福診所,高雄市左營區明誠二路200號,(07)558-0809,無,否,0,0,0,0,2025/11/13,22.661178979399,120.309632979478
高雄市,佳璋診所,高雄市苓雅區三多一路303號,(07)721-2090,掛號費300元+行政處理費100元共400元,否,0,0,0,0,2025/11/11,22.621891993388,120.32910103925
高雄市,高雄市立聯合醫院,高雄市鼓山區中華一路976號,(07)555-2565,掛號費50元,否,1,1,0,0,2025/11/18,22.654963001914,120.291106039794
高雄市,高雄榮民總醫院,高雄市左營區大中一路386號,(07)342-2121分機72067,無,否,0,0,0,0,2025/11/13,22.677439997288,120.32247598298
高雄市,衛生福利部旗山醫院,高雄市旗山區大德里中學路60號,(07)661-3811,掛號費150元,否,0,0,0,0,2025/11/25,22.880693982765,120.483277011888
高雄市,高雄市立民生醫院,高雄市苓雅區凱旋二路134號,(07)751-1131,無,否,0,0,0,0,2025/11/20,22.628253983626,120.322710005717
高雄市,高雄市立小港醫院(委託財團法人私立高雄醫學大學經營),高雄市小港區山明路482號,(07)803-6783分機3850，https://forms.gle/caaXcRRAeHgpDyfv8預約網站,無,否,0,0,0,0,2025/11/13,22.567543020736,120.363011034375
高雄市,高雄市立凱旋醫院,高雄市苓雅區凱旋二路130號,(07)751-3171,無,是,0,0,0,0,2025/11/13,22.625115002797,120.324095031397
高雄市,高雄市立大同醫院(委託長庚醫療財團法人經營),高雄市前金區中華三路68號 ,(07)291-1101 分機8029,無,否,0,0,0,0,2025/11/13,22.627066980408,120.297086024795
高雄市,財團法人台灣省私立高雄仁愛之家附設慈惠醫院,高雄市大寮區後庄里鳳屏一路509號,(07)703-0315,掛號費100元,是,6,6,6,0,2025/11/25,22.638684004843,120.39726200532
高雄市,燕巢靜和醫療社團法人燕巢靜和醫院,高雄市燕巢區深水路3-20號,(07)615-6555分機151,掛號費50元/次,否,0,1,0,0,2025/11/25,22.781592017404,120.416272999913
高雄市,財團法人私立高雄醫學大學附設中和紀念醫院,高雄市三民區自由一路100號,(07)312-1101分機6751,掛號費150元,是,0,0,0,0,2025/11/13,22.645186014774,120.309630967821
高雄市,義大醫療財團法人義大醫院,高雄市燕巢區義大路1號,(07)615-0011,無,否,0,0,0,0,2025/11/13,22.765480197391,120.364446183836
高雄市,高雄市立鳳山醫院（委託長庚醫療財團法人經營）,高雄市鳳山區經武路42-1號,(07)741-8151,掛號費70元，部分負擔80元,否,0,0,0,0,2025/11/13,22.628585990811,120.362823028286
高雄市,長庚醫療財團法人高雄長庚紀念醫院,高雄市鳥松區大埤路123號,(07)731-7123轉8780、8781、8782,無,否,0,0,0,0,2025/11/13,22.650400019554,120.354724014343
高雄市,欣靜和診所,高雄市新興區八德一路298號,(07)236-7773,掛號費150,否,0,0,0,0,尚未更新,22.63584999956,120.305639002614
高雄市,芯耕圓心理諮商所,高雄市左營區至聖路312號17樓之三,(07)556-7315,無,是,0,0,0,0,2025/11/13,22.659750996465,120.303331967584
高雄市,和誼診所,高雄市前金區六合二路98號,(07)285-5698,掛號費300元+行政處理費100元共400元,否,0,0,0,0,2025/11/30,22.631253157425,120.296406672648
高雄市,信義醫療財團法人高雄基督教醫院,高雄市苓雅區華新街８６號,(07)332-1111#6766,掛號費150元,否,0,0,0,0,尚未更新,22.613917618345,120.296395775069
高雄市,欣明精神科診所,高雄市旗山區延平一路660號,(07)662-7802,掛號費130元,否,0,0,0,0,2025/11/13,22.88525398955,120.482946010531
高雄市,繪星巨蛋館心理治療所,高雄市左營區南屏路259-1號1樓,(07)552-2858,平日白天18:00前：行政處理費400，掛號費100元 夜間18:00後含週六：行政處理費900，掛號費100元,是,0,0,0,0,2025/11/21,22.66936998473,120.298350015794
高雄市,展穎診所 ,高雄市苓雅區四維一路157號,(07)713-0822,無,否,0,0,0,0,2025/11/13,22.623989019834,120.324410023319
高雄市,楠梓臻心診所,高雄市楠梓區右昌街656號,(07)363-1096,掛號費100元,否,0,0,0,0,2025/11/13,22.719026013612,120.284208990766
高雄市,高雄市立旗津醫院(委託財團法人私立高雄醫學大學經營),高雄市旗津區旗港路33號,(07)5711188,掛號費100元,否,0,0,1,0,2025/11/26,22.590209991946,120.28511499068
高雄市,小宇宙心理治療所,高雄市三民區建工路585號2樓,(07)380-5160,行政處理費200元,是,0,0,0,0,2025/11/13,22.648279984784,120.320079010129
高雄市,暖心心理諮商所,高雄市鳳山區建國路三段248號,(07)777-6248,無,是,0,0,0,0,2025/11/21,22.637550017162,120.351430010214
高雄市,心和心理諮商所,高雄市前金區中正四路235號9樓之5,(07)215-5838、0963-985-063,行政管理費600元,是,0,0,0,0,2025/11/18,22.627972016403,120.292676976087
高雄市,安好心理諮商所,高雄市前鎮區崗山東街34號,LineID：@anhao,行政處理費500元,否,0,0,0,0,2025/11/11,22.608308993563,120.336821023532
高雄市,大海心理諮商所,高雄市新興區中正二路192號6樓之1,0910-538-598,行政費用200元整,是,0,0,0,0,2025/11/13,22.630591989788,120.316207995785
高雄市,蛹之生心理諮商所,高雄市楠梓區土庫一路178號,0968-070-620或至官網填寫預約表單,無,是,0,0,0,0,2025/11/13,22.736434011132,120.329015962933
高雄市,高雄醫學大學附設高醫岡山醫院,(820)高雄市岡山區捷安路8號,(07)626-1000分機 8163、8164,掛號費100元,否,0,0,0,0,2025/11/18,22.7973967,120.2949477
基隆市,衛生福利部基隆醫院,基隆市信義區信二路268號,(02)24292525#3611,掛號費100元,否,7,8,8,0,2025/11/24,25.130455594105,121.748321699793
基隆市,維德醫療社團法人基隆維德醫院,基隆市中正區調和街210號,(02)2469-6688,掛號費150元,否,0,0,0,0,2025/11/11,25.130445116726,121.799078398291
基隆市,基隆心身心精神科診所,基隆市仁愛區仁一路181號1樓,(02)2428-3399,無,否,0,0,0,0,2025/11/11,25.127916003171,121.751337005641
基隆市,胡耿豪身心精神科診所,基隆市安樂區武嶺街85號1樓,(02)2431-0311,行政費300元,否,0,0,0,0,2025/11/11,25.140085981758,121.71109599141
基隆市,安大心身心診所,基隆市中正區新豐街229號,(02)2469-4100,掛號費400元,否,5,27,0,0,2025/11/19,25.136863307625,121.788405637158
基隆市,耘心心理諮商所,基隆市信義區信一路150號5樓A室,(02)2427-10000968-522-731,無,否,0,0,0,0,2025/12/01,25.129759016042,121.746525960856
基隆市,心晴天心理治療所,基隆市中正區中正路12之5號2樓,(02)24211009,無,否,0,0,0,0,2025/11/30,25.132401997751,121.744371979378
新竹市,能清安欣診所,新竹市東區光華街29號,03-5357600,掛號費300元,否,0,0,0,0,2025/11/28,24.814788007557,120.972317979192
新竹市,理心潛能心理諮商所,新竹市食品路177巷23號,0933357785,無,是,0,0,0,0,2025/11/10,24.796225989608,120.976341963269
新竹市,雲起心理治療所,新竹市自由路67號7樓之2,0978479875,無,否,0,0,0,0,2025/11/10,24.812889003573,120.980726033906
新竹市,觀心心理治療所,新竹市東區關新東路159號2樓,03-5670642,掛號費200元,否,0,0,0,0,2025/11/10,24.784009305494,121.019494301522
新竹市,蛹之生心理諮商所,新竹市東區關東里光復路一段268巷9弄1號1-2樓,0968-070-620,無,否,0,0,0,0,2025/11/10,24.782901990592,121.020103963567
新竹市,杜華心苑心理諮商所,新竹市東區新光路83號,03-5736178,掛號費平日200元  假日400元,是,0,0,0,0,2025/11/10,24.80370700583,120.989299966483
新竹市,林正修診所,新竹市新光路38號, 03-516 6746,掛號費200元(114年1月1日起調整為250元),否,0,0,0,0,2025/11/10,24.801972706244,120.988689596294
新竹市,椿心理諮商所,新竹市東區東大路1段50號1樓,0900643707,行政處理費400元,否,0,0,0,0,2025/11/10,24.802655998991,120.976307010733
新竹市,聊癒之森身心診所,新竹市東區金城三路119號1樓,03-5721925,心理評估與掛號費 400元,否,0,0,0,0,2025/11/10,24.79318322947,121.004946875352
新竹市,光合心理諮商所,新竹市東區民生路193號11樓,0900755940,掛號費200元,否,0,0,0,0,2025/11/10,24.811491782224,120.975786829822
新竹市,新竹沛智心理治療所,新竹市東區慈雲路105號,03-5799969,無,否,0,0,0,0,2025/11/10,24.792127197046,121.012165882165
新竹市,馬大元診所,新竹市東區龍山里光復路一段544巷36號1樓,03-5794698,無,否,0,0,0,0,2025/11/12,24.787676280731,121.011198694357
新竹市,寬心自在心理諮商所,新竹市東大路二段3號3樓,03-5426695,18歲以上成人-掛號費200元18歲以下青少年-掛號費400元,是,0,0,0,0,2025/11/28,24.819728217694,120.961984433571
新竹市,若竹心理諮商所,新竹市東區大學路81巷3號2樓,03-5166186,行政處理費400元,否,0,0,0,0,2025/11/10,24.788562205987,121.002279762645
新竹市,國泰醫療財團法人新竹國泰綜合醫院,新竹市中華路二段678號,03-5278999,掛號費200元,否,0,0,0,0,2025/11/10,24.798282992466,120.965298973473
新竹市,晨境語言暨心理治療所,新竹市北區北大路180號4樓,0921569487,無,否,0,0,0,0,2025/11/10,24.808876418885,120.966411084387
新竹市,親禾身心診所,新竹市東區關新二街67號,5771057,掛號費200元,否,0,0,0,0,2025/11/10,24.785501512133,121.0182173648
新竹市,國立臺灣大學醫學院附設醫院新竹臺大分院新竹醫院,新竹市經國路一段442巷25號,03-5326151分機522701,無,否,0,0,0,0,2025/11/10,24.815769722742,120.980100974167
嘉義市,戴德森醫療財團法人嘉義基督教醫院,嘉義市東區保建街100號7樓,05-2765041#8585,日間100元；夜間、假日150元(遵循方案原則，本院於醫事作業每次收取掛號費),是,3,3,5,0,2025/11/24,23.478642,120.453488
嘉義市,天主教中華聖母修女會醫療財團法人天主教聖馬爾定醫院,嘉義市東區民權路60號,05-2780040#3201,無,否,1,0,0,0,2025/11/25,23.484158218743,120.466143832092
嘉義市,陽明醫院,嘉義市東區吳鳳北路252號,05-2252000#3679,掛號費150元,是,2,2,2,0,2025/11/26,23.480569987316,120.453190002801
嘉義市,欣明心理治療所,嘉義市東區安和街234號,05-2787282,掛號費150元(自114年4月1日起增收),是,0,0,0,0,2025/11/25,23.486184982344,120.457586981569
嘉義市,知心連冀診所,嘉義市西區中山路523號,05-2286808,無,是,6,6,6,6,2025/11/30,23.479319994095,120.444360003082
嘉義市,暖暖心理治療所,嘉義市東區嘉工街51號,無，預約方式請見網站。,無,否,2,2,2,2,2025/12/01,23.47129997959,120.468810014645
嘉義市,心言心理諮商所,嘉義市西區玉康路130號,0982-569979,無,否,0,0,0,0,2025/11/28,23.471416697591,120.427651768749
嘉義市,小足跡心理治療所,嘉義市西區德安路31號,05-2330031,無,是,0,0,0,0,2025/11/25,23.483895004487,120.432665990867
嘉義市,覓祈心理諮商所,嘉義市東區小雅路353號1樓,05-2785175,無,是,2,2,3,0,2025/11/25,23.474370019266,120.473229959828
新北市,星嶼心理治療所,新北市板橋區文化路一段145號6樓之5,(02)2969-9307,行政作業費尖峰時段：400元（周末全日、周間夜間六點半後） 離峰時段：200元（周間下午）,否,0,0,0,0,2025/11/19,25.015665513936,121.462332420732
新北市,馨動心理治療所,新北市板橋區文化路二段182巷3弄33號5樓,line ID：@125pptme,行政費200元,否,0,0,0,0,2025/11/19,25.028650003964,121.472352985978
新北市,知芯心理治療所,新北市板橋區館前東路22號六樓,(02)2952-8180,行政費400元,是,0,0,0,0,2025/11/25,25.007023017391,121.460184977139
新北市,拾心心理治療所,新北市板橋區縣民大道一段104號2樓,0909-617-628,行政處理費(平日18:00前)：600元行政處理費(平日18:00後、周六)：1000元,是,0,0,0,0,2025/11/17,25.005542982838,121.457022987985
新北市,悅現心理治療所,新北市板橋區文化路二段182巷1弄15號2樓,(02)2255-6580,掛號費500元(僅需第一次前來時繳納),是,0,0,0,0,2025/12/01,25.027926017078,121.471292004674
新北市,好安心心理治療所,新北市新莊區中平路377巷43號1樓,(02)8521-9843,掛號費200元,是,0,0,0,0,尚未更新,25.05238298562,121.4431569732
新北市,五守心理治療所,新北市新莊區中港路五守新村35巷2號3樓,0905-344-459,掛號費400元,否,0,0,0,0,2025/11/25,25.038563839829,121.455001993513
新北市,漱心坊心理治療所,新北市新莊區明中街38號8樓,(02)8991-4930,掛號費150元（具重大傷病、身心障礙、中低收入等掛號費100元）,是,0,0,0,0,2025/11/19,25.039665417299,121.456968673252
新北市,知芯新店心理治療所,新北市新店區北新路二段177-3號4樓,(02)8914-5945,行政費400元,是,0,0,0,0,2025/11/25,24.977029005521,121.542657037053
新北市,沐昕心理治療所,新北市三重區三光街30巷10號,(02)29800479/0909-270-237,行政手續費500元,是,0,0,0,0,2025/11/24,25.060656007873,121.484252019545
新北市,養心心理治療所,新北市永和區博愛街10號1樓,(02)8928-0123,掛號費400元場地設備維護費500元,是,0,0,0,0,尚未更新,25.015695982154,121.516785035616
新北市,嘉誼心理治療所,新北市三峽區復興路59號2樓,0962-035-930,行政處理費300元,否,0,0,0,0,2025/11/19,24.937081986543,121.373030031739
新北市,夢屋心理治療所,新北市三峽區大義路19號1-2樓,0922-999-491,掛號費400元,否,0,0,0,0,尚未更新,24.945217419856,121.377831521154
新北市,蛹之生心理諮商所,新北市板橋區文化路一段46巷38號,0968-070-620,無,是,0,0,0,0,2025/11/25,25.011165018664,121.460426040674
新北市,心語心理諮商所,新北市板橋區莒光路39巷10號4樓,(02)2250-0002,行政費300元,是,0,0,0,0,2025/11/12,25.024999517493,121.470867796555
新北市,板橋小宅心理諮商所,新北市板橋區介壽街84巷3號2樓,0906-843-319,行政費600元,是,0,0,0,0,尚未更新,25.018204015222,121.469202563851
新北市,同在心理諮商所,新北市板橋區新民街27號7樓,0905-168-815,臨時失約需支付1000元行政管理費,是,0,0,0,0,2025/12/01,25.010267400653,121.464074683126
新北市,南方心理諮商所,新北市新店區永新街30號3樓,(02)2916-0135,行政費400元,是,0,0,0,0,2025/11/28,24.9751730007,121.544090007219
新北市,小漁村心理諮商所,新北市新店區三民路65號2樓,(02)8914-7484,行政費用300元,是,0,0,0,0,2025/11/26,24.971156979432,121.536369017109
新北市,大山心理諮商所,新北市新店區民權路41號5樓,0981-418-723,無,是,0,0,0,0,2025/11/24,24.982728993046,121.540463995906
新北市,雨止晴拾心理諮商所,新北市三重區仁美街108巷25號1樓,(02)7751-8779,無,是,0,0,0,0,2025/11/19,25.080525979903,121.4843909915
新北市,點心語心理諮商所,新北市三重區重新路四段53號11樓,0979-772-735,無,是,2,0,0,0,2025/11/24,25.057539993458,121.48772900062
新北市,喜樂心理諮商所,新北市三重區重陽路四段42號2樓,(02)2981-0715,掛號費200元,是,0,0,0,0,2025/11/18,25.070060000322,121.491466994161
新北市,方煦心理諮商所,新北市三重區重陽路一段89號6樓之5,(02)8985-3002,無,是,0,0,0,0,2025/11/11,25.059179703267,121.486880081467
新北市,覓心理諮商所,新北市林口區仁愛二路77號1樓,0965-833-520,行政費用400元,是,1,0,0,0,2025/11/29,25.075716611499,121.368091079112
新北市,予諾心理諮商所,新北市林口區公園路129號2樓,(02)2608-2500,場地行政規費600元,否,0,0,0,0,2025/11/22,25.070351983919,121.369129010182
新北市,家好心理諮商所,新北市林口區仁愛路二段502號2樓之3,0972-706-289(02)2601-2992,行政費500元,是,0,0,0,0,2025/11/17,25.076562094072,121.37530756247
新北市,蛹之生生不息心理諮商所,新北市中和區中安街178巷18弄25號1樓,0968-070-620,無,是,0,0,0,0,2025/11/27,24.999492003117,121.510074986848
新北市,理馨心理諮商所,新北市土城區永安街103號5樓,0968-989-195,行政費300元,是,0,0,0,0,2025/11/11,24.964035002032,121.429888001378
新北市,轉化心理諮商所,新北市三峽區大義路189號4樓之2,0908-078-921,無,否,0,0,0,0,2025/11/13,24.945204008811,121.377851972998
新北市,頂溪心理諮商所,新北市永和區竹林路21號3樓,(02)8927-3456,無,是,0,0,0,0,2025/11/23,25.014979999985,121.517068008667
新北市,楊孟達身心精神科診所,新北市板橋區文化路一段275號1樓,(02)2255-5222,無,否,0,0,0,0,尚未更新,25.018564017964,121.464699134913
新北市,幸福身心精神科診所,新北市板橋區實踐路83號,(02)2957-8000,無,否,0,0,0,0,尚未更新,25.005648008085,121.464116005909
新北市,恆友精神科診所,新北市新莊區幸福東路135號1樓,(02)2990-7909,掛號費250元,否,0,0,0,0,2025/11/19,25.049333020602,121.460888973186
新北市,育心身心精神科診所,新北市新莊區新泰路177號,(02)2277-9773,掛號費250元,否,0,0,0,0,尚未更新,25.037512106373,121.447488237846
新北市,賽斯身心靈診所,新北市新店區中央七街26號2樓,(02)2218-0875,掛號費100元,是,5,5,5,0,2025/11/27,24.975119985163,121.529593002763
新北市,均樂身心診所,新北市新店區民族路29號1樓,(02)2913-5017,掛號費250元,否,0,0,0,0,尚未更新,24.978635020078,121.540970011401
新北市,治聿身心醫學診所,新北市新店區中興路三段250號1樓,(02)2218-8374,掛號費250元,是,4,4,1,0,2025/12/01,24.984091010403,121.543048974845
新北市,安興精神科診所,新北市三重區重新路三段132號1樓,(02)2974-3029,掛號費250元,否,0,0,0,0,2025/11/19,25.05978889999,121.491692634994
新北市,美麗心成人兒童精神科診所,新北市三重區正義北路210號,(02)2988-6773,掛號費250元,否,0,0,0,0,尚未更新,25.067526989182,121.496203691464
新北市,維品身心診所,新北市中和區連城路4號1樓,(02)2242-2510,初診掛號費用350元,否,0,0,0,0,尚未更新,25.001796020661,121.498378040967
新北市,樂活精神科診所,新北市中和區安樂路25號1樓,(02)2946-3655,掛號費250元,否,0,0,0,0,尚未更新,24.999658006709,121.514068963711
新北市,中永和身心精神科診所,新北市永和區中正路558號1、2樓,(02)2929-1555,無,否,0,0,0,0,尚未更新,25.005729019179,121.517261965907
新北市,欣彥身心診所,新北市蘆洲區復興路200號1樓,(02)2847-1319,掛號費200元部分負擔50元,否,0,0,0,0,尚未更新,25.088901009918,121.478374964315
新北市,悠活精神科診所,新北市土城區學府路一段158號,(02)2274-8877,掛號費250元,否,0,0,0,0,尚未更新,24.986906994594,121.454256037927
新北市,合康診所,新北市汐止區大同路二段512號,(02)8642-5222,掛號費200元,否,0,0,0,0,2025/11/19,25.068358973212,121.660971911824
新北市,行天宮醫療志業醫療財團法人恩主公醫院,新北市三峽區復興路399號、中山路198號、258號,(02)2672-3456轉3401,掛號費200元,否,0,0,0,0,2025/12/01,24.937050009583,121.363511961588
新北市,衛生福利部八里療養院,新北市八里區華富山33號,(02)2610-1660,無,是,0,0,0,0,尚未更新,25.139642,121.411949
新北市,衛生福利部八里療養院土城院區,新北市土城區青雲路6號,(02)2274-5250,無,是,0,0,0,0,尚未更新,24.989583001002,121.460107025439
新北市,衛生福利部八里療養院蘆洲院區,新北市蘆洲區長樂路148號,(02)8285-6224,無,是,0,0,0,0,尚未更新,25.090552412481,121.462432919751
新北市,衛生福利部臺北醫院,新北市新莊區思源路127號,(02)2276-5566,掛號費120元,否,0,0,0,0,尚未更新,25.043241095284,121.459622635254
新北市,衛生福利部雙和醫院(委託臺北醫學大學興建經營),新北市中和區中正路291號,(02)2249-0088轉70217,掛號費150-200元,否,0,0,0,0,尚未更新,24.993095814713,121.493774699743
新北市,台灣基督長老教會馬偕醫療財團法人淡水馬偕紀念醫院,新北市淡水區民生路45號,自殺防治中心：(02)2809-4661轉2778,掛號費150元,是,0,0,0,0,2025/11/19,25.137990194712,121.46200395093
新北市,輔仁大學學校財團法人輔仁大學附設醫院,新北市泰山區貴子路69號,(02)8512-8888,掛號費加診察費390元,否,6,6,7,7,2025/12/01,25.039728048116,121.430353292579
新北市,怡濟慈園醫療社團法人宏濟神經精神科醫院,新北市新店區安忠路57巷5號,(02)2211-8899轉705,無,否,2,1,0,0,2025/11/17,24.958906283117,121.513950192143
新北市,新北市立聯合醫院三重院區,新北市三重區新北大道一段3號,(02)2982-9111,掛號費50元,否,0,0,0,0,尚未更新,25.060869494947,121.49084027926
新北市,新北市立聯合醫院板橋院區,新北市板橋區英士路198號,(02)2257-5151,掛號費50元,否,0,0,0,0,尚未更新,25.023683810152,121.457708460026
新北市,汐止館愛心理諮商所,新北市汐止區大同路512號6樓,(02)6604-0530,無,否,0,0,0,0,2025/11/24,25.0637969,121.6587593
新北市,輔大診所,新北市新莊區中正路510號醫學大樓一樓,(02)2905-2526,掛號費150元,否,0,0,0,0,2025/11/19,25.032931019102,121.434193030668
新北市,好日子心理治療所,新北市三重區正義北路227號2樓, 0978-150-785,行政費400元,否,0,0,0,0,尚未更新,25.068992020129,121.49603697541
新北市,悠幼心理治療所,新北市板橋區板新路85號2樓,Line預約：https://line.me/ti/p/@uukids,掛號費400元/次,否,0,0,0,0,尚未更新,25.013746980118,121.473240964801
新北市,米露谷板橋心理治療所,新北市板橋區文化路一段147號7樓之2,(02)2271-0754,【平日18:00前】掛號費$100+行政費$300 【平日18:00後及週末】掛號費$100+行政費$500,是,0,0,0,0,2025/12/01,25.015906996567,121.462160004984
新北市,米露谷新店心理治療所,新北市新店區民權路77號9樓,(02)2918-6620,【平日18:00前】掛號費$100+行政費$300 【平日18:00後及週末】掛號費$100+行政費$500,是,0,0,0,0,2025/11/13,24.982824001919,121.538466001646
新北市,米露谷心理治療所,新北市中和區連勝街28號2樓,(02)8245-8820,【平日18:00前】掛號費$100+行政費$300 【平日18:00後及週末】掛號費$100+行政費$500,是,0,0,0,0,2025/11/13,24.997878989669,121.498190034879
新北市,回家心理諮商所,新北市板橋區華江一路608號7樓,0912-608-017,自付行政費 : 200元/次,是,0,0,0,0,2025/11/23,25.032644090398,121.465271167017
新北市,古意心理諮商所,新北市新店區建國路12-2號2樓,官方line帳號：@310sbier,行政費500元,否,0,0,0,0,尚未更新,24.973582995578,121.540244976776
新北市,沐樂心理諮商所,新北市新店區二十張路33巷2弄3號1樓,(02)2915-0060,無,是,0,0,0,0,尚未更新,24.980436968647,121.539756492386
新北市,佳好+good心理諮商所,新北市三重區光復路一段70號4樓,(02)8512-2660,場地費400元,是,0,0,0,0,尚未更新,25.049435698916,121.471902877778
新北市,悅安身心診所,新北市中和區南山路51號1樓,(02)2245-0067,行政處理費400元,否,0,0,0,0,2025/11/19,24.987503995647,121.508067018123
新北市,喜悅診所,新北市樹林區中山路一段10號1樓,(02)2682-0039,掛號費250元,否,0,0,0,0,尚未更新,24.990969493515,121.423254395567
新北市,財團法人台灣省私立台北仁濟院附設新莊仁濟醫院,新北市新莊區中環路一段28號,(02)2201-5222,自付掛號費,否,0,0,0,0,尚未更新,25.026737002203,121.442724718453
新北市,林口抱抱心身醫學診所,新北市林口區文化三路一段205號1、2樓,(02)2606-9578,掛號費600元,是,0,0,0,0,2025/12/01,25.070474988348,121.362413010263
新北市,合誼身心診所,新北市蘆洲區集賢路222號,(02)8286-1138,掛號費250元,否,6,6,0,0,2025/11/20,25.087126016192,121.48284402745
新北市,好安心蘆洲心理治療所,新北市三重區集仁街158號,(02)2855-9478,掛號費200元,是,0,0,0,0,尚未更新,25.086527003481,121.484658960944
新北市,知芯板橋心理治療所,新北市板橋區四川路一段23號5樓之1,(02)2952-0505,行政費400元,否,0,0,0,0,2025/11/25,25.002890194302,121.460033599967
新北市,青禾心理諮商所,新北市板橋區三民路二段38號3樓之1,0966-197-367,行政費400元,否,0,0,0,0,2025/11/11,25.017592094381,121.479159510452
新北市,同心心理諮商所,新北市板橋區文化路一段188巷18號2樓,0905-919-815,臨時失約需支付1000元行政管理費,是,0,0,0,0,2025/11/20,25.019448015382,121.466174014595
新北市,沐居心理諮商所,新北市新店區中央七街67號1樓,0910-752-203,無,是,0,0,0,0,2025/11/11,24.976469094388,121.527775135603
新北市,明心心理治療所,新北市新莊區新知一路69號9樓,0908-512-165,行政費400元,是,0,0,0,0,2025/11/11,25.062106685019,121.462849704197
新北市,米露谷板橋兒青暨育才中心心理治療所,新北市板橋區文化路一段135號6樓,(02)2272-7336,【平日18:00前】掛號費$100+行政費$300 【平日18:00後及週末】掛號費$100+行政費$500,是,0,0,0,0,2025/11/13,25.015259997461,121.461985996674
新北市,語境心理諮商所,新北市淡水區平遠街1之7號,0966-030-676,行政處理費600元,否,0,0,0,0,尚未更新,25.167548994146,121.447711028833
新北市,順心診所,新北市板橋區中山路二段141號,(02)8952-0669,掛號費250元,否,0,0,0,0,2025/11/24,25.016681987334,121.475333004014
新北市,擁抱雙和心理諮商所,新北市永和區中和路343號12樓,(02)2922-2234,行政費500元,否,0,0,0,0,2025/11/19,24.999842995312,121.507880017864
桃園市,新楊梅診所,桃園市楊梅區環東路476號,03-4856530,行政管理費400元,否,0,0,0,0,2025/11/13,24.910416512243,121.156830238717
桃園市,新晴心理諮商所,桃園市中壢區中北路二段119號12樓之六,0928-889882,掛號費200元，行政處理費200元,否,0,0,0,0,2025/11/13,24.951630120609,121.225894187217
桃園市,謐時光心理諮商所,桃園市蘆竹區光明路一段60巷22號,033128327,行政掛號費400元,是,0,0,0,0,2025/11/26,25.044403916711,121.291668322539
桃園市,尚語身心診所,桃園市中壢區忠孝路62號,03-4512180,行政管理費 400元,否,0,0,0,0,2025/11/28,24.974143786809,121.256172219876
桃園市,舒欣身心診所,桃園市平鎮區上海路221號,034031058,掛號費150元,否,0,0,0,0,2025/11/13,24.915590996349,121.206136784147
桃園市,中原大學附設冠英心理治療所,桃園市中壢區中北路200號(中原大學生物科技館707室),03-265-7090,無,否,0,0,0,0,2025/11/25,24.9572523,121.2406412
桃園市,居善醫院,桃園市大園區大觀路910號,03-3866511,掛號費100元,是,0,0,0,0,2025/11/13,25.058658013613,121.165732993356
桃園市,尼思湖心理諮商所,桃園市蘆竹區南平街35號B1,03-2122721 ; 0916-832895,行政管理暨場地費400元,是,0,0,0,0,2025/11/13,25.04538935073,121.291192418167
桃園市,心澤心理諮商所,桃園市桃園區中正路1322號4樓,0976-085331,無,否,0,0,0,0,2025/11/25,25.021030015788,121.296484983199
桃園市,昭質心理諮商所,桃園市中壢區福壽九街16號2樓,以官方line預約,掛號費200元,否,0,0,0,0,2025/11/13,24.966938996206,121.234043995493
桃園市,衛生福利部桃園療養院,桃園市桃園區龍壽街71號,03-3698553分機2301-2308,掛號費150元,是,0,0,0,0,2025/11/21,24.978934002565,121.269127959977
桃園市,放心心理治療所,桃園市桃園區國際路2段18號1樓,033790885,行政場地費400元,是,0,0,0,0,2025/11/13,24.994509572336,121.287906196692
桃園市,拾心元心理諮商所,桃園市桃園區中山路703號2樓之2,03-2202182,無,否,0,0,0,0,2025/11/13,25.055383179779,121.299974649778
桃園市,心設計心理諮商所,桃園市平鎮區文化街66-1號1樓,03-4013311,行政場地費400元,否,0,0,0,0,2025/11/13,24.954728994032,121.202894999274
桃園市,正文身心診所,桃園市桃園區經國路196號,03-3151658,掛號費250元,否,0,0,0,0,2025/11/13,25.017329992269,121.305457978186
桃園市,廢墟花園心理諮商所,桃園市桃園區大有路632號2樓,0911-609099 03-3259546,無,是,0,0,0,0,2025/11/13,25.015577001039,121.317091975974
桃園市,芯明心理治療所,桃園市中壢區青峰路一段53-55號8樓,0907-010107、03-4223516,掛號費400元,是,0,0,0,0,2025/11/13,25.015010216746,121.218566978918
桃園市,澈心理諮商所,桃園市桃園區同德二街160號之2-3樓,03-3579128,無,是,2,0,0,0,2025/11/25,25.01021400793,121.299977973709
桃園市,振心身心診所,桃園市桃園區中山北路57號1樓,03-3376868,掛號費200元,否,0,0,0,0,2025/11/17,24.993492614009,121.303196037795
桃園市,擁抱心身醫學診所,桃園市桃園區復興路123號8、9樓,03-3310119,掛號費300元+行政處理費200元，共500元,否,1,0,0,0,2025/11/25,24.990220780014,121.312706983328
桃園市,心園心理治療所,桃園市桃園區忠一路15號,03-3317485,行政掛號費400元,是,17,17,17,0,2025/11/26,24.995858992914,121.302260030667
桃園市,福德身心診所,桃園市中壢區中美路二段97號一樓,03-425-3680,掛號費150元及行政費50元,否,0,0,0,0,2025/11/13,24.959752394333,121.221488491269
桃園市,人生策展人心理諮商所,桃園市龜山區萬壽路二段1199巷76號1F,0919705585,無,否,0,0,0,0,2025/11/13,24.992832120039,121.330987830335
桃園市,四葉草心理治療所,桃園市桃園區中正路1048號6樓,0963-080526,無,否,0,0,0,0,2025/11/30,25.013902840675,121.299752103755
桃園市,聯新國際醫院,桃園市平鎮市廣泰路77號 ,03-494-1234,掛號費300-350元,否,1,1,1,0,2025/11/25,24.946119606004,121.204959713484
桃園市,財團法人桃園市藍迪基金會附設澄語社區心理諮商所,楊梅區電研路190巷92弄100號,03-4901500分機125,無,否,0,0,0,0,尚未更新,24.951785982098,121.170386961275
桃園市,采靈心理諮商所,桃園市楊梅區楊新北路162號,03-4855730分機11,行政費用200元,否,0,0,0,0,2025/11/25,24.912429007195,121.152796028719
桃園市,沙爾德聖保祿修女會醫療財團法人聖保祿醫院,桃園市桃園區建新街123號,03-3613141 #7694,掛號費250元,否,0,0,0,0,2025/11/28,24.982115018639,121.312506991118
桃園市,澄禾心理諮商所,桃園市桃園區水岸二街96號,033579139,行政費400元,否,0,0,0,0,2025/11/13,25.02736401047,121.298585991049
桃園市,向光心理諮商所,桃園市八德區介壽路二段788號9樓,0958143562,行政管理費400元,否,0,0,0,0,2025/11/20,24.936431006033,121.297145980083
桃園市,柏樂診所,桃園市中壢區中山東路二段37號1樓,（03）4560208,掛號費230元,否,0,0,0,0,2025/11/13,24.954306001288,121.237531034852
桃園市,聊瞭心理諮商所,桃園市中壢區強國路14號2樓,03-2850663,行政費400元/次,否,0,0,0,0,2025/11/13,24.967691984478,121.256103991184
桃園市,沛田心理治療所,桃園市大園區致祥三街53號,03-2871007,掛號費400元,否,0,0,0,0,2025/11/13,25.008448988669,121.211363990424
桃園市,迎旭診所,桃園市中壢區延平路146號,(03)4277126,掛號費200元,否,0,0,0,0,2025/11/26,24.963022300491,121.229070677063
桃園市,心晴診所,桃園市桃園區大有路360號1樓,03/3467895,無,是,0,0,0,0,2025/11/13,25.01056889771,121.319618533049
桃園市,當陽之境身心診所,桃園市桃園區大業路一段436 號,033557998,掛號費200元加行政管理費200元共400元,否,0,0,0,0,2025/11/13,25.015288145289,121.311633181323
桃園市,敏盛綜合醫院,桃園市桃園區經國路168號,033179599,無,否,0,0,0,0,2025/11/25,25.016233806972,121.306314441052
桃園市,薰喆心理治療所,桃園市桃園區中埔一街107號1樓,03-3019182,無,否,0,0,0,0,2025/11/29,25.013409985701,121.295709992431
桃園市,宣恩心理諮商所,桃園市中壢區寶慶街17號一樓,0905-498-990,無,否,0,0,0,0,2025/11/13,24.951574003767,121.229783977023
桃園市,育禾身心診所,桃園市蘆竹區中正路138號,03-212-4688,掛號費200元,否,0,0,0,0,2025/11/25,25.046786011684,121.292669037959
桃園市,長庚醫療財團法人林口長庚紀念醫院,桃園市龜山區復興街5號,03-3281200分機2479,門診掛號費 100 元,否,0,0,0,0,2025/11/12,25.061525001685,121.36950401653
桃園市,長庚醫療財團法人桃園長庚紀念醫院,桃園市龜山區舊路里頂湖路 123 號,03-3281200 轉分機2479,門診：西醫、中醫 150 元,否,0,0,0,0,2025/11/12,25.029582325258,121.36552384363
桃園市,心吉時心理諮商所,桃園市中壢區元化路113號2樓,03-2805158,場地暨行政費400元,否,0,0,0,0,2025/11/13,24.958745979219,121.228198037123
桃園市,助人心理諮商所,桃園市桃園區復興路207號16樓1603室,03-3359532,無,否,8,8,8,0,2025/11/28,24.98880398692,121.308462974293
桃園市,福安心理治療所,桃園市桃園區中正路1195號6 樓,03-2737788,無,否,0,0,0,0,2025/11/29,25.019269983759,121.296772985392
桃園市,野薑花心理諮商所,桃園市桃園區大有路508號2樓,(03)355-9779,無,是,0,0,0,0,2025/11/21,25.013544012333,121.31821598919
桃園市,有伴心理諮商所,桃園市中壢區民權路245-1號(2樓),0975665345(周一至周四上午9:00~12:00),100,否,0,0,0,0,2025/11/13,24.961288000905,121.217357973204
新竹縣,培靈醫療社團法人關西醫院,新竹縣關西鎮石門33之1號,03-5476399,無,否,0,0,0,0,2025/11/12,24.756755,121.186623
新竹縣,心園心理治療所,新竹縣竹北市勝利八街二段111號,03-5506375,400掛號費,否,0,0,0,0,2025/11/25,24.822481085929,121.034806492289
新竹縣,寬心自在心理諮商所(竹北所),新竹縣竹北市中正東路213號2樓,03-5426695,18歲以上成人-掛號費200元18歲以下青少年-掛號費400元,否,0,0,0,0,2025/11/12,24.835018610971,121.014865693178
新竹縣,台齡身心診所,新竹縣竹北市文信路376號,35586857,無,否,0,0,0,0,2025/11/12,24.832400984518,121.011100961366
新竹縣,心璞藝術心理諮商所,新竹縣竹北市光明六路東二段48號,03-6685726,無,否,0,0,0,0,2025/11/12,24.818243991965,121.029770980137
新竹縣,益鼎升心理諮商所,新竹縣寶山鄉雙豐二街75號1樓,0931421391;03-6220303;03-6220305,無,是,0,0,0,0,2025/11/25,24.768061202377,120.990583235859
新竹縣,理路嵐天心理諮商所,新竹縣寶山鄉雙豐二街25巷6號2樓,03-5290015,無,否,0,0,0,0,2025/11/27,24.767764673853,120.989108775505
新竹縣,智諭潛能發展心理治療所,新竹縣竹北市科大二街49號1樓,03-6571550,無,否,0,0,0,0,2025/11/12,24.82126650625,121.00785867358
新竹縣,青空心理治療所,新竹縣竹北市六家五路一段335、337號,0972-512295,行政處理費400元,是,0,0,0,0,2025/11/28,24.806792414405,121.030810335686
新竹縣,星晴心理治療所,新竹縣竹北市光明六路東二段268號,03-6578690,掛號費 200 元,否,0,0,0,0,2025/11/12,24.813535709313,121.033433620368
新竹縣,臺北榮民總醫院新竹分院,新竹縣竹東鎮中豐路一段81號,03-5962134#623,掛號費180元,否,0,0,0,0,2025/11/27,24.721829013304,121.109976992528
新竹縣,拾光心理諮商所,新竹縣竹北市文信路23號1樓,03-5583800,無,是,0,0,0,0,2025/11/12,24.831639991529,121.014560005169
新竹縣,六竹診所,新竹縣竹北市嘉豐二街一段48號1樓,03-5505550,掛號費200元自付額50元,否,0,0,0,0,2025/11/19,24.816559983798,121.029629996526
新竹縣,安立身心診所,新竹縣竹北市莊敬北路78號1樓,03-6577622,民眾每次需自付200元掛號費,否,0,0,0,0,2025/11/24,24.824879986618,121.024379991472
新竹縣,沐光心理諮商所,新竹縣竹北市成功11街150號2樓,03-6578521,行政費500保證金600(結案後退回),是,0,0,0,0,2025/11/12,24.814262001223,121.02321499075
新竹縣,中國醫藥大學新竹附設醫院,新竹縣竹北市興隆路一段199號,03-5580558分機1158,掛號費260元,否,0,0,0,0,2025/11/12,24.824057680007,121.001962759067
新竹縣,天主教仁慈醫療財團法人仁慈醫院,新竹縣湖口鄉忠孝路29號,03-5993500,掛號費150元,否,0,0,0,0,2025/11/12,24.900557717728,121.045457879568
宜蘭縣,雨後心理治療所,宜蘭縣五結鄉台興路96號1樓,03-9657998,平日白天9:00-17:00免費，夜間17:00後及週六週日行政處理費400元,否,0,0,0,0,2025/11/24,24.697977008623,121.768159988228
宜蘭縣,伴心理諮商所,宜蘭縣礁溪鄉仁愛路11巷5號,0975-087710,無,是,0,0,0,0,2025/11/24,24.827913984111,121.771308985432
宜蘭縣,聊癒心理諮商所,宜蘭縣羅東鎮康莊路42號,0930121253,400元(行政與場地費用),是,0,0,0,0,2025/11/24,24.669964017658,121.777077997931
宜蘭縣,喜悅心理諮商所,宜蘭縣五結鄉鎮安村舊街一路110巷10號,0975216206,無,否,0,0,0,0,2025/11/24,24.709338385011,121.76927654155
宜蘭縣,臺北榮民總醫院員山分院,宜蘭縣員山鄉內城村榮光路386號,03-9222141,掛號費,否,0,0,0,0,2025/11/24,24.721918993034,121.687823972519
宜蘭縣,臺北榮民總醫院蘇澳分院,宜蘭縣蘇澳鎮蘇濱路一段301號,03-9905106,掛號費,否,0,0,0,0,2025/11/24,24.613007183472,121.850228627143
宜蘭縣,享受美光心理治療所,宜蘭市黎明三路329巷55弄11號,0939504295,無,否,0,0,0,0,2025/11/24,24.747420011436,121.76579997957
宜蘭縣,永恩心理諮商所,宜蘭市中山路一段660號,0976-026667,無,是,0,0,0,0,2025/11/24,24.7395685072,121.760002110503
宜蘭縣,馨家心理治療所,宜蘭市民權新路340號一樓,0963621858,無,是,0,0,0,0,2025/11/24,24.752986600973,121.742488230459
宜蘭縣,國立陽明交通大學附設醫院,宜蘭縣宜蘭市新民路152號,03-9325192,掛號費(依身分別收取),否,0,0,0,0,2025/11/24,24.757659009079,121.753964983744
宜蘭縣,宜然自得心理諮商所,宜蘭縣礁溪鄉和平路16巷1號,03-9109776,無,是,0,0,0,0,2025/11/24,24.822728016797,121.769344015871
宜蘭縣,立心理諮商所,宜蘭縣五結鄉二結路370號2樓,0908-166-003,無,是,0,0,0,0,2025/11/24,24.70771791167,121.770348000233
宜蘭縣,五餅二魚身心科診所,宜蘭縣羅東鎮林森路154-1號,(03)9550705,400元（行政與場地費用）,否,0,0,0,0,2025/11/24,24.680204985049,121.767291036326
宜蘭縣,海天醫院,宜蘭縣壯圍鄉古亭路23-9號,(03)9308010,無,否,0,0,0,0,2025/11/24,24.779162614038,121.810475691133
苗栗縣,衛生福利部苗栗醫院,苗栗縣苗栗市為公路747號,037-261920#1265,無,否,1,0,0,0,2025/11/25,24.574811982259,120.84134697022
苗栗縣,我時心理諮商所,苗栗縣竹南鎮佳興里環市路三段580號1F,037-620780,無,否,0,0,0,0,2025/11/19,24.693631997655,120.883037969881
苗栗縣,逍遙心理諮商所,苗栗縣頭份市斗煥里11鄰群英路85巷1號,03-5729385,無,是,0,0,0,0,2025/11/26,24.6863288,120.9129373
苗栗縣,謐境心理治療所,苗栗縣苗栗市中山路398號1樓,037-377567,無,否,0,0,0,0,2025/11/18,24.610177997784,120.797533002122
苗栗縣,為恭醫療財團法人為恭紀念醫院,苗栗縣頭份市信義路128號,037-676811#53370,掛號費(依院方規定),否,8,0,0,0,2025/12/01,24.687096418202,120.907345321452
苗栗縣,度情心理諮商所,苗栗縣後龍鎮新東路426號,037-728869,無,是,6,6,6,0,2025/11/25,24.603105012608,120.816698978104
苗栗縣,小巷子心理治療所,苗栗縣頭份市長安街45之1號1樓,037-598590,行政費200元,否,0,0,0,0,2025/11/28,24.692341016928,120.910131968982
彰化縣,敦仁醫院,彰化縣員林市員水路一段102巷74弄99號,04-7071727#203,無,否,4,0,0,0,2025/11/24,23.951467487007,120.604649568258
彰化縣,沐昀心理治療所,彰化市博愛街64 號,04-7200060,無,否,0,0,0,0,2025/11/24,24.073121553654,120.545196991644
彰化縣,雁行心理諮商所,彰化縣彰化市桃源里南郭路一段361-1號,0908-139283,無,否,0,0,0,0,2025/11/24,24.07349601112,120.555198015904
彰化縣,真宸心理治療所,彰化市金馬路三段135號,0909-506501,無,是,0,0,0,0,2025/11/24,24.087728811066,120.533356040595
彰化縣,芙樂奇心理諮商所,彰化縣員林市南和街64號,04-8346028,無,是,0,0,0,0,2025/11/24,23.958088017049,120.567061007287
彰化縣,秀傳醫療社團法人秀傳紀念醫院,彰化縣彰化市中山路一段542號,0975-611-165/0975-611-234,無,否,0,0,0,0,2025/11/24,24.064786207892,120.537508093071
彰化縣,四季心心理諮商所,彰化縣員林市浮圳路二段470號,0966-189708,無,是,0,0,0,0,2025/11/24,23.965214017762,120.575520023972
彰化縣,彰化師大社區心理諮商所,彰化市進德路1號(綜合中心3樓),04-7289258,無,是,0,0,0,0,2025/11/24,24.081515019797,120.558555973954
彰化縣,彰化基督教醫療財團法人彰化基督教醫院,彰化縣彰化市南校街135號;中華路176號;旭光路235號;旭光路320號,04-7238595,無,是,0,0,0,0,2025/11/24,24.0808221,120.5422446
彰化縣,衛生福利部彰化醫院,彰化縣埔心鄉中正路二段80號,8298686,掛號費320元,否,0,0,0,0,2025/11/24,23.95022499559,120.527299018822
彰化縣,唯心心理治療所,彰化市辭修路76號,04-7222076,無,否,0,0,1,0,2025/11/26,24.087586786639,120.538559602824
彰化縣,修慧身心科診所,彰化縣和美鎮中圍里彰新路三段531號,04-7266158,掛號費150元,是,1,0,0,0,2025/11/25,24.114808899188,120.528322026134
彰化縣,未知有智心理諮商所,彰化市中山路一段403號6樓,0921-623003,,否,0,0,0,0,2025/11/24,24.062335004128,120.535687040787
彰化縣,安晴心理治療所,彰化縣鹿港鎮埔崙里自由路301號,0963682903,,是,0,0,0,0,2025/11/24,24.06439603205,120.438248719533
彰化縣,聽聽心裡詩心理治療所,彰化市進德路79號1樓,04-7030677,200,是,0,0,0,0,2025/11/24,24.085680993314,120.55853895869
彰化縣,心生心理諮商所,彰化縣二林鎮照西路305巷11號,0917-252023,無,是,0,0,0,0,2025/11/24,23.903136301741,120.365655021912
南投縣,衛生福利部草屯療養院,南投縣草屯鎮玉屏路161號,049-2550800,無,是,3,0,0,0,2025/11/18,23.990398996505,120.704527907402
南投縣,衛生福利部南投醫院,南投縣南投市復興路478號,049-2231150#2128,無,是,0,0,0,0,2025/11/21,23.969669292667,120.66834348285
南投縣,埔基醫療財團法人埔里基督教醫院,南投縣埔里鎮鐵山路1號,049-2912151#5650,無,否,0,0,0,0,尚未更新,23.970701985048,120.946473973313
南投縣,臺中榮民總醫院埔里分院,南投縣埔里鎮榮光路一號,049-2990833分機7107,掛號費180元,否,0,0,0,0,2025/11/25,23.975834014814,120.996413017156
南投縣,致遠身心科診所,南投市康壽里南陽路415號,049-2248282,掛號費150元,是,0,0,0,0,2025/11/17,23.912615689408,120.682144873162
南投縣,唯聆心理治療所,南投縣草屯鎮仁愛街270號,0958797012,無,否,3,3,0,0,2025/11/25,23.984671013423,120.678079985398
南投縣,生命樹心理諮商所,南投市文化南路106號2樓,0931868809,,否,0,0,0,0,2025/11/17,23.899323389896,120.681287124544
南投縣,微聲想想心理治療所,南投縣埔里鎮西康路52號,0912169868,,否,6,6,6,0,2025/11/27,23.965781011603,120.96434704073
雲林縣,信安醫療社團法人信安醫院,雲林縣斗六市瓦厝路159號,05-5223788,無,否,0,0,0,0,2025/11/25,23.669961017403,120.513001000748
雲林縣,天主教若瑟醫療財團法人若瑟醫院,雲林縣虎尾鎮新生路74號,05-6337333,掛號費150元,否,0,0,0,0,2025/11/25,23.708215017667,120.437885988708
雲林縣,晴明身心診所,雲林縣斗六市大同路183號,05-5330567,掛號費200元,否,3,3,0,0,2025/11/25,23.709636588446,120.54731022592
雲林縣,廖寶全診所,雲林縣虎尾鎮東明路182號,05-6322584,無,否,0,0,0,0,2025/11/25,23.714150997677,120.440880004522
雲林縣,雲晴心理諮商所,雲林縣虎尾鎮光復路315巷7號,0921523828,無,否,0,0,0,0,2025/11/25,23.709293014235,120.439960006829
雲林縣,綠水心理諮商所,雲林縣虎尾鎮林森路一段416巷15號2樓,0958137607,行政處理費200元,否,20,10,0,0,2025/11/25,23.711091309651,120.434817960688
雲林縣,穗訸心理治療所,雲林縣斗六市建成路59巷11號1樓,0936762822,行政費500元,否,15,15,10,0,2025/11/28,23.704225986127,120.53508597451
雲林縣,何正岳診所,雲林縣斗六市鎮西里建成路115號,05-5328680,0,否,0,0,0,0,2025/11/25,23.703778015312,120.533600030715
雲林縣,又見花開心理諮商所,雲林縣斗六市明德北路一段177號,05-5362708,0,否,0,0,0,0,2025/11/25,23.717240986283,120.550713027153
嘉義縣,佛教慈濟醫療財團法人大林慈濟醫院,嘉義縣大林鎮民生號2號,05-2648000,掛號費100元,否,2,3,3,0,2025/11/28,23.6038602,120.4711998
嘉義縣,臺中榮民總醫院灣橋分院,嘉義縣竹崎鄉灣橋村石麻園38號,05-2791072#7378,第一次至本院建立病歷以利後續繼續治療，掛號費50元,否,6,6,6,0,2025/11/28,23.509686,120.545075
嘉義縣,款待心理諮商所,嘉義縣民雄鄉中樂村保生街81巷25號,0971-822301,行政費100元,否,0,0,0,0,2025/11/26,23.552513203375,120.427559567815
嘉義縣,敬重自我存在心理諮商中心,嘉義縣民雄鄉建國路一段1020之2946號,05-2264948,行政處理及場地費200元,否,12,8,0,0,2025/11/24,23.577166015085,120.439148973878
屏東縣,安己心理治療所,屏東市民富街86巷13號,0930920640,無,否,0,0,0,0,2025/11/19,22.687089998595,120.49824097217
屏東縣,牧陽心理治療所,屏東縣屏東市中山路277號,08-7328695,1.週間平日：200元（含掛號費及行政處理費）2.晚間及假日：300元（含掛號費、行政處理費及晚間假日指定費）3.中低收入戶、領有身心障礙手冊、重大傷病卡者免掛號費，僅需繳交100元行政處理費。,否,0,0,0,0,2025/11/19,22.648968013306,120.527825989075
屏東縣,衛生福利部屏東醫院,屏東市自由路270號,08-736-3011轉2811,無,否,0,0,0,0,2025/11/19,22.673264007398,120.495546022661
屏東縣,杏福身心診所,屏東市中正路177號1樓,08-7660058,掛號費150元 （非本院看診個案）,否,0,0,0,0,2025/11/19,22.644315299928,120.52368485413
屏東縣,屏東榮民總醫院龍泉分院,屏東縣內埔鄉龍潭村昭勝路安平一巷１號,08-7704115,掛號費50元,否,0,0,0,0,2025/11/19,22.669460299737,120.599914966431
屏東縣,啟初心理治療所,屏東市仁愛路79-2號,0975313630,掛號費100元,否,0,0,0,0,2025/11/19,22.679291014876,120.495008994124
屏東縣,屏安醫療社團法人屏安醫院,屏東縣長治鄉信義路129號 (長治院區)、屏東縣麟洛鄉中山路160-1號(麟洛院區),08-7622670 分機1121,無,否,0,0,0,0,2025/11/27,22.677201993147,120.575761003688
屏東縣,瑞興診所,屏東縣屏東市瑞光路二段250號2樓,08-7378888,無,否,0,0,0,0,2025/11/19,22.692624438215,120.502445992103
屏東縣,國軍高雄總醫院屏東分院附設民眾診療服務處,屏東縣屏東市大湖路58巷22號,08-7560756,掛號費50元,否,0,0,0,0,2025/11/28,22.633767456134,120.487713487802
屏東縣,屏基醫療財團法人屏東基督教醫院,屏東市大連路60號,(08)7368686#2111,無,否,0,0,0,0,2025/11/19,22.684433434175,120.510307636811
屏東縣,覺解心理諮商所,屏東縣林邊鄉光林村信義路14之3號,0932826972,無,否,0,0,0,0,2025/11/27,22.430024991012,120.515864007415
屏東縣,安泰醫療社團法人安泰醫院,屏東縣東港鎮中正一段210號,08-8329966分機3040,無,否,0,0,0,0,2025/11/19,22.4667017,120.4542226
屏東縣,迦樂醫療財團法人迦樂醫院,屏東縣新埤鄉箕湖村進化路12-200號,0985652350,掛號費150元,否,0,0,0,0,2025/11/19,22.46299198012,120.604443960173
澎湖縣,衛生福利部澎湖醫院,澎湖縣馬公市中正路10號,(06)9261151,無,否,4,3,3,0,2025/11/26,23.564573001845,119.565372029117
澎湖縣,如常心理諮商所,澎湖縣馬公市新村路22號,,無,否,0,0,0,0,2025/12/01,23.569559982777,119.570505022803
花蓮縣,臺灣基督教門諾會醫療財團法人門諾醫院,花蓮市民權路44號,03-8241433,首次收取掛號費150元，第二三次無收費,否,0,0,0,0,2025/11/18,23.988473002793,121.626649741841
花蓮縣,臺灣基督教門諾會醫療財團法人門諾醫院壽豐分院,花蓮縣壽豐鄉共和村魚池52號,03-8664600*2107,首次收取掛號費100元，第二三次無收費,否,0,0,0,0,2025/12/01,23.877167,121.518943
花蓮縣,臺北榮民總醫院玉里分院,花蓮縣玉里鎮新興街91號,03-8883141,無,否,0,0,0,0,2025/11/18,23.339213087847,121.312031485751
花蓮縣,佛教慈濟醫療財團法人花蓮慈濟醫院,花蓮縣花蓮市中央路三段707號,03-8561825,無,否,1,0,0,0,2025/11/18,23.994751342949,121.593140034636
花蓮縣,衛生福利部玉里醫院,花蓮縣玉里鎮中華路448號,03-8886141,無,是,0,0,0,0,2025/11/25,23.347943991346,121.319010273846
花蓮縣,衛生福利部花蓮醫院,花蓮市中正路600號,038358141-6125,掛號費50元,否,0,0,0,0,2025/11/28,23.979480394153,121.611180520435
花蓮縣,國軍花蓮總醫院附設民眾診療服務處,花蓮縣新城鄉嘉里路163號,03-8263151#815870,無,否,0,0,0,0,2025/11/18,24.02442931385,121.607400030646
花蓮縣,美的心理諮商所,花蓮市林森路246-1號2樓,0986620895,無,否,0,0,0,0,2025/11/18,23.981812993987,121.606257996339
花蓮縣,力美心靈空間心理諮商所,花蓮縣吉安鄉永安村明仁二街176巷1號1樓,0920135290,掛號費100元,是,0,0,0,0,2025/11/18,23.990303987633,121.575877033908
花蓮縣,睿翔心理治療所,花蓮縣花蓮市中美一街31號3樓之2,03-8246020,無,否,0,0,0,0,尚未更新,23.993053000417,121.629129024981
花蓮縣,澄隅心理諮商所,花蓮縣花蓮市主和里福建街266號,0966407840,行政場地費300元,否,0,0,0,0,2025/11/26,23.971048995839,121.604179032894
花蓮縣,秘密花園心理諮商所,花蓮縣吉安鄉仁里五街146號,0918096864,無,是,0,0,0,0,2025/11/25,23.969567997367,121.588212010259
花蓮縣,相嶼心理治療所,花蓮市中興路97號,03-8246899,行政掛號費400元,否,0,0,0,0,2025/11/25,23.99374098703,121.628558971746
花蓮縣,昔日如今心理諮商所,花蓮市花崗街62號,03-8335110,行政處理費400元,是,0,0,0,0,2025/11/18,23.978711983179,121.613490992046
花蓮縣,光陰時繫心理治療所,花蓮市大同街9之4號,0905019866,行政處理費400元,是,0,0,0,0,2025/11/18,23.9821734,121.6068468
花蓮縣,銘心身心診所,花蓮市民政里31號鄰中美路113之2號1-2樓,(03)8226116,無,是,0,0,0,0,2025/11/24,23.992507003244,121.626663991076
花蓮縣,春好心理治療所,花蓮市中和街182號,03-8333182,無,否,0,0,0,0,尚未更新,23.973126995365,121.599425990879
花蓮縣,本然心理諮商所,花蓮巿和平路362號4樓之1,Line ID：peaceshilim,行政掛號費150元,是,0,0,0,0,2025/11/18,23.974115012202,121.603517030181
花蓮縣,瑞恩心理諮商所,花蓮巿延平街169號2樓,0982100828,無,否,0,0,0,0,尚未更新,23.985332010307,121.599695971981
臺東縣,凝鏡心理治療所,臺東市勝利街72號,0906363088,場地費400元,是,0,0,0,0,2025/11/18,22.762984988635,121.155474968793
臺東縣,第3空間,臺東市傳廣路445號2樓,官方line：@361tbmgk,行政費300元,是,5,5,5,5,2025/12/01,22.766219984165,121.143717002656
臺東縣,美好心理諮商所,臺東市新展街23巷7號,0972977477,行政費200元(僅第一次諮商需要繳納),否,5,0,0,0,2025/11/29,22.76998098603,121.12331603706
臺東縣,心鏡心理諮商所,臺東市同樂街33號,0901063035,行政費300元,是,0,0,0,0,2025/11/11,22.755360013226,121.156329000907
臺東縣,茁然谷心理諮商所,臺東市更生路419巷16號,0965518580,無,是,1,1,1,0,2025/11/26,22.762609018368,121.141293962086
臺東縣,衛生福利部臺東醫院,臺東市五權街1號,089-324112,門診掛號費50元，門診基本部分負擔80元,否,0,0,0,0,2025/11/18,22.757024994473,121.150648501306
臺東縣,衛生福利部臺東醫院成功分院,臺東縣成功鎮中山東路32號,089-854748,門診掛號費50元，門診基本部分負擔64元,否,0,0,0,0,2025/11/28,23.099390116101,121.377929002688
金門縣,曾杏榕診所,金湖鎮市港二路170號1樓,082-335666,無,否,0,0,0,0,2025/11/24,24.437582906393,118.410713315662
